pid,nombre,type,country,state,municipality,address,phone,email,web,social_media1,social_media2,,,
org1,10 de marzo,colectivo,México,Tamaulipas,,,,,,https://twitter.com/c1003r,,,,
org2,A Dónde Van Los Desaparecidos ,Journalism,México,,,,,contacto@adondevanlosdesaparecidos.org,https://adondevanlosdesaparecidos.org/mapaestados/michoacan-de-ocampo/,https://www.facebook.com/adondevanlosdesaparecidos,,,,
org3,Águilas del Desierto,NGO,US,California,Fallbrook,,,aguilas.del.desierto@hotmail.com,https://aguilasdeldesierto.org/,https://www.facebook.com/aguilas.búsquedayrescate,,,,
org4,Alondras Unidas en Búsqueda y Justicia ,colectivo,México,Estado de México,,,5518210928,,,https://www.facebook.com/Colectivo-Alondras-unidas-en-b%C3%BAsqueda-y-Justicia-100639721505020/,,,,
org5,Amnistía Internacional,InternationalOrganization,México,Ciudad de México,,"Luz Saviñon 519, Col del Valle Nte, Benito Juárez, 03103 Ciudad de México, CDMX, Mexico",442074135500,,https://www.amnesty.org/es/what-we-do/disappearances/,https://www.facebook.com/amnesty,https://twitter.com/amnesty,,,
org6,Amores,colectivo,México,Nuevo León,,,528183435058,,https://cadhac.org/amores-cadhac-y-pgjnl-revisan-expedientes-y-avances-en-reunion-no-30/?fbclid=IwAR04Mm87BciEXy-tn49GyEiwyUPDAQsjx5SqWX_DctKfX8xyNs1UCFwP3v0,https://www.facebook.com/amoresdnl,,,,
org7,Armadillos Búsqueda y Rescate SD,colectivo,US-México,Arizona,,,17603042553; 17602704770,,https://www.armadillosbyr.org/explorar-en-espanol/contactar,https://www.facebook.com/ArmadillosByRSD/,,,,
org8,Armadillos Ni un Migrante Menos,NGO,US-México,,,,17606858499,armadillosmigrantessomos@gmail.com,https://www.niunmigrantemenos.org/,,,,,
org9,Artículo 19,NGO,México,Ciudad de México,Miguel Hidalgo,"Av. José Vasconcelos 131, San Miguel Chapultepec I Secc, Miguel Hidalgo, 11850 Ciudad de México, CDMX
Mexico",52550546500,comunicacion@article19.org,https://articulo19.org/,https://www.facebook.com/Articulo19/,https://twitter.com/Article19Mex,,,
org10,Asociación de Familiares de Detenidos Desaparecidos y Víctimas de Violaciones a los Derechos Humanos en México (AFADEM),colectivo,México,Regional,,,520445528936354,afadem.sec.ejec@hotmail.com,,,,,,
org11,Asociación Unidos por los desaparecidos de Baja California A.C.,colectivo,México,Baja California,,,,,,https://www.facebook.com/Asociacion-unidos-por-los-desaparecidos-de-Baja-California-AC-171581592926968/about/?ref=page_internal#_=_,,,,
org12,Brigada Humanitaria de Paz Marabunta (BHPM),Solidarity,México,,,,525523111434,brigadamarabunta@gmail.com ,,https://www.facebook.com/bhPAZm/?ref=page_internal,,,,
org13,Brigada Internacional de Búsqueda de Personas Desaparecidas,Solidarity,México,,,,,brigadainternacionalmx@gmail.com,https://www.brigadainternacionalmx.com/inicio,https://www.facebook.com/brigadainternacionaldebúsqueda?_rdc=1&_rdr,,,,
org14,Brigada Nacional de Búsqueda de Personas Desaparecidas,colectivo,México,Nacional,,,,enlaces.nacionales@gmail.com,,https://www.facebook.com/brigadadebúsqueda,https://twitter.com/brigadabuscando,,,
org15,Brigada Solidaria,Solidarity,México,,,,,,,https://www.facebook.com/Brigadadonepo/?ref=page_internal,https://twitter.com/compabrigada?fbclid=IwAR3L6m5AwUCZ7dyDzB8XlA52M3nESRwwKTyXxTdburGH1b5NL0X9Mv2IEdc,,,
org16,Brigada Solidaria NYC,Solidarity,US,New York,New York City,,,solidaritybrigadecanada@gmail.com,,https://twitter.com/NycBrigade,https://www.facebook.com/SolidarityBrigadeCanada/,,,
org17,Buscador@s de Nuevo León,colectivo,México,Nuevo León,,,528135573508,,,https://www.facebook.com/buscadorxs/,,,,
org18,Buscadoras de Hermosillo por Una Esperanza,colectivo,México,Sonora,Hermosillo,,,,,https://www.facebook.com/BuscadorasHermosilloPorUnaEsperanza/,"
https://twitter.com/BuscadorasHillo",,,
org19,Buscadoras Guanajuato,colectivo,México,Guanajuato,León,,,buscadorasleonguanajuato2020@gmail.com,,https://www.facebook.com/Buscadoras-Gto-104500384801717/,https://twitter.com/buscadoras_gto,,,
org20,Buscadoras por la paz Huatabampo,colectivo,México,Sonora,Huatabampo,,,,,https://www.facebook.com/groups/902941730492552,,,,
org21,Buscando a Nuestros Desaparecidos Búscame,colectivo,México,Chihuahua,,,,bdmex19@gmail.com,,https://www.facebook.com/BuscandoDesaparecidosMéxico,https://twitter.com/BUSCAMEMX,,,
org22,Buscando a Nuestros Desaparecidos y Desaparecidas Veracruz,colectivo,México,Veracruz,,,,,,https://www.facebook.com/Buscando-a-Nuestros-Desaparecidos-y-Desaparecidas-Veracruz-952938734761976/,,,,
org23,Buscando el Camino Hacia Ti A.C.,colectivo,México,Tamaulipas,,,,buscandoelcaminohaciati.a.c@gmail.com,,https://www.facebook.com/Colectivo-de-b%C3%BAsqueda-Buscando-El-Camino-Hacia-Ti-AC-897245000448518,,,,
org24,Buscando Nuestro Tesoro,colectivo,México,Baja California Sur ,,,6241653074,riana_gal@hotmail.com,https://sites.google.com/view/búsquedaxlapaz/colectivos?authuser=0,https://www.facebook.com/Buscando-nuestro-tesoro-333491780906970/,,,,
org25,Buscando Tus Huellas con Fe y Esperanza,colectivo,México,Tamaulipas,,,8341598334,,,https://www.facebook.com/JorgeHernandeZ27/,,,,
org26,Buscando tus pasos,colectivo,México,Tamaulipas,,,,,,https://www.facebook.com/groups/568092297617509/,,,,
org27,Buscando tus pasos Michoacán,colectivo,México,Michoacán,,,,,,https://www.facebook.com/groups/709941419597808/,,,,
org28,"Búsqueda de familiares ""Regresando a Casa Morelos"" A.C.",colectivo,México,Morelos,,,,regresandoacasa1@gmail.com,,https://www.facebook.com/regresandoacasamorelos/,https://twitter.com/familiaresacasa,,,
org29,Búsqueda los Cabos,colectivo,México,Baja California Sur ,,,6241192942,,,https://www.facebook.com/profile.php?id=100036023469028,,,,
org30,Búsqueda Nacional en Vida,colectivo,México,,,,525530475328,búsquedanacionalenvida@gmail.com,,https://www.facebook.com/B%C3%BAsqueda-Nacional-en-Vida-111628443622167/,,,,
org31,Búsqueda X El Valle,colectivo,México,Baja California Sur,,,6242468021; 6131404998,,,https://www.facebook.com/people/búsqueda-x-el-valle/100063566139032/,,,,
org32,Búsqueda X La Paz,colectivo,México,Baja California Sur ,,,6121532370; 6121408761,,,https://www.facebook.com/ColectivoDebúsquedaDePersonasDesaparecidasDelBCS/,,,,
org33,Caminando por los Ausentes de Tamaulipas A.C,colectivo,México,Tamaulipas,,,528341657076,normis_celeste@hotmail.com,,https://www.facebook.com/Caminando-por-los-Ausentes-de-Tamaulipas-AC-110670630483237/,,,,
org34,CEDIMAC,colectivo,México,Chihuahua,Ciudad Juárez,,,,,https://www.facebook.com/profile.php?id=100014593814604,https://twitter.com/CEDIMAC1,,,
org35,Centro de Derechos Humanos de la Montaña Tlachinollan,NGO,México,Guerrero,,,,,https://www.tlachinollan.org/,,,,,
org36,Centro de Derechos Humanos de las Mujeres (CEDEHM),NGO,México,Chihuahua,,,,,https://cedehm.org.mx/es/,,,,,
org37,Centro de Derechos Humanos Juan Gerardi A.C.,NGO,México,Coahuila,Torreón,"Torre de Cristo 333 27085 Torreón, Coahuila de Zaragoza, México",528717208335,cdhgerardi@gmail.com,,https://www.facebook.com/DHGerardi,,,,
org38,Centro de Derechos Humanos Miguel Agustín Pro Juárez (Centro Prodh),NGO,México,Ciudad de México,,"Serapio Rendón 57B, Col. San Rafael, México, D.F.",5555468217,prodh@sjsocial.org,https://centroprodh.org.mx/,https://www.facebook.com/prodh/ https://twitter.com/centroprodh?lang=es,,,,
org39,Centro de Derechos Humanos Paso del Norte A.C,NGO,México,Chihuahua,Ciudad Juárez,"Calle Independencia No. 7073, Colonia Lino Vargas y Raymundo Chavez Perez",6561704203,cdhpasodelnorte@hotmail.com,https://cdhpasodelnorte.blogspot.com/,https://twitter.com/CdhPasodelNorte?lang=es,,,,
org40,Centro de Derechos Humanos Toaltepeyolo,NGO,México,Veracruz,Orizaba,"Oriente 8 405B, Centro, 94300 Orizaba, Ver., Mexico",12721069341,toaltepeyolo@gmail.com,http://www.toaltepeyolo.org/contacto.php,https://www.facebook.com/toaltepeyolo/,,,,
org41,Centro de Justicia para la Paz y el Desarrollo (CEPAD),NGO,México,Jalisco,,"Calle Garibaldi 641, Zona Centro 44100 Guadalajara, Jalisco, México",523336134066,comunicacion@cepad.org.mx,https://cepad.org.mx/,https://www.facebook.com/CEPAD.GDL/,,,,
org42,Centro para los Derechos Humanos Fray Juan de Larios,NGO,México,Coahuila,,,,,https://frayjuandelarios.mx/,,,,,
org43,Centro Universitario por la Dignidad y la Justicia Francisco Suárez (ITESO),Academia,México,Jalisco,San Pedro Tlaquepaque,"Anillo Perif. Sur Manuel Gómez Morín 8585, Iteso, 45604 San Pedro, Tlaquepaque, Jal. Mexico",523336693434,contacto@iteso.mx,"
http://iteso.mx/",https://www.facebook.com/DHDignidadyJusticiaITESO/,,,,
org44,Ciudadanos en Apoyo a los Derechos Humanos (CADHAC),NGO,México,Nuevo León,Monterrey,"Vancouver 156, Vista Hermosa, Monterrey, Nuevo León, NL CP 64620, México",528183435058,cadhac@cadhac.org,https://cadhac.org/,https://www.facebook.com/cadhac,,,,
org45,Club Amigo Siempre de la 78 inc.,NGO,US,New York,Queens,"35-47Junction Blvd Corona, Queens, NY",9174157680,viniciosegarra@hotmail.com,,https://www.facebook.com/Friendsforeverof78Inc/,,,,
org46,Coimté Contra la Desaparición Forzada de la ONU,InternationalOrganization,México,,,"Quai Wilson 47, 1201 Genève, Switzerland",,ohchr-ced@un.org,https://hchr.org.mx/cajas_herramientas/comite-contra-la-desaparicion-forzada/,https://twitter.com/UNTreatyBodies,,,,
org47,Colectivo 21 de mayo,colectivo,México,Tamaulipas,,,,,,https://www.facebook.com/Colectivo-21-de-Mayo-319337554889214/,,,,
org48,Colectivo Buscando Cuerpos,colectivo,México,Guerrero,,,,,,https://twitter.com/buscandocuerpos,,,,
org49,Colectivo Buscando Cuerpos,colectivo,México,Michoacán,,,,,,https://twitter.com/buscandocuerpos,,,,
org50,Colectivo Buscando Cuerpos,colectivo,México,Estado de México,,,,,,https://twitter.com/buscandocuerpos,,,,
org51,Colectivo Buscando Cuerpos,colectivo,México,Veracruz,,,,,,https://twitter.com/buscandocuerpos,,,,
org52,Colectivo Buscando Cuerpos,colectivo,México,Tamaulipas,,,,,,https://twitter.com/buscandocuerpos,,,,
org53,Colectivo Buscando Cuerpos,colectivo,México,Morelos,,,,,,https://twitter.com/buscandocuerpos,,,,
org54,Colectivo Buscando Cuerpos,colectivo,México,Puebla,,,,,,https://twitter.com/buscandocuerpos,,,,
org55,Colectivo Buscando Cuerpos,colectivo,México,Quintana Roo,,,,,,https://twitter.com/buscandocuerpos,,,,
org56,Colectivo Buscando Cuerpos,colectivo,México,Coahuila,,,,,,https://twitter.com/buscandocuerpos,,,,
org57,"Colectivo Buscando Personas, Verdad y Justicia",colectivo,México,Aguascalientes,,,524491556324,zurdyyux@gmail.com,,https://www.facebook.com/ColectivoBuscandoPersonasVerdadyJusticiaAgs/,,,,
org58,Colectivo Búsqueda Coatzacoalcos Zona Sur (Veracruz),colectivo,México,Veracruz,,,,,,https://www.facebook.com/groups/1018456781523072/about,,,,
org59,Colectivo Con Justicia y Esperanza de San Luis de la Paz,colectivo,México,Guanajuato,,,524681013717,,,https://www.facebook.com/Colectivo-justicia-y-esperanza-110139417358063/,https://twitter.com/colectivojusti1,,,
org60,Colectivo de Búsqueda en Baja California,colectivo,México,Baja California,,,526648223529,olimar1654@gmail.com,,https://www.facebook.com/mifamiliamebusca/,,,,
org61,Colectivo de Familiares de Desaparecidos,colectivo,México,Jalisco,,,,colectivo.cfd.zapotlán@gmail.com,,https://www.facebook.com/Colectivo-de-familiares-Desaparecidos-104433885049273/,,,,
org62,"Colectivo de Familiares de Desaparecidos y Asesinados, Chilpancingo Gro",colectivo,México,Guerrero,Chilpancingo,,,colectivo_chilpancingo@hotmail.com,,https://www.facebook.com/Colectivo-de-Familiares-de-Desaparecidos-y-Asesinados-Chilpancingo-Gro-560760454313961/,https://twitter.com/Col_FDAChilpo,,,
org63,Colectivo de Familiares y Amigos Desaparecidos en Tamaulipas,colectivo,México,Tamaulipas,,,,,http://dis.ibero.mx/grupos/2017o/dint3/equipo01/index.php,,,,,
org64,Colectivo Desaparecidos y Desplazados Nacional,colectivo,México,,,,522288354984,,,https://www.facebook.com/Colectivo-Desaparecidos-y-Desplazados-Nacional-104436134640149/,,,,
org65,Colectivo el Solecito de Veracruz,colectivo,México,Veracruz,,,,,,https://www.facebook.com/Lucidige/,,,,
org66,Colectivo familias unidas por una búsqueda incansable,colectivo,México,Nayarit,,,,,,https://www.facebook.com/Colectivo-familias-unidas-por-una-b%C3%BAsqueda-incansable-105328284174421/?ref=page_internal,,,,
org67,Colectivo Feminista Orquídeas de Morelos,colectivo,México,Morelos,,,,,,https://www.facebook.com/ColectivoFeministaOrquideasdeMorelos/,,,,
org68,Colectivo Hasta Encontrarles CDMX,colectivo,México,Ciudad de México,,,,,,https://www.facebook.com/Hasta-Encontrarles-CDMX-2311164475668971/,,,,
org69,Colectivo Madres Luna,colectivo,México,Veracruz,,,522711142958,colectivomadresluna@gmail.com,,https://www.facebook.com/Colectivo-Madres-Luna-108024044136301/,,,,
org70,Colectivo Mujer y Utopía,NGO,México,Tlaxcala,Tlaxcala De Xicohténcatl,,2464668554; 2461246879,direccion@mujeryutopia.org,https://mujeryutopia.org/,https://www.facebook.com/colectivo.mujerutopia/,,,,
org71,Colectivo Oaxaqueños Unidos Exigiendo Justicia,colectivo,México,Oaxaca,,,,,,https://www.facebook.com/desaparecidxsoaxaca/,,,,
org72,Colectivo por la Paz Veracruz,colectivo,México,Veracruz,,,522281197077,colectivopazxalapa@hotmail.com,,https://www.facebook.com/ColectivoPazXalapa/,,,,
org73,Colectivo por Nuestros Corazones,colectivo,México,Nayarit,,,,,,https://www.facebook.com/Por-Nuestros-Corazones-1091246164348712/,,,,
org74,Colectivo Raúl Trujillo Herrera Por Los Desaparecidos en Guerrero,colectivo,México,Guerrero,,,7472196322,colectivoraultrujillo@gmail.com,,https://www.facebook.com/profile.php?id=100063967274750,,,,
org75,Colectivo Solecito de Veracruz,colectivo,México,Veracruz,,,5212282837089,rocatoss35@hotmail.com,,https://www.facebook.com/Lucidige/,,,,
org76,Colectivo Solidario Búsqueda de Desaparecidos A.C. División Colima,colectivo,México,Colima,,,,keniamandujano50@gmail.com,,https://www.facebook.com/Colectivo-Solidario-B%C3%BAsqueda-de-Desaparecidos-AC-Divisi%C3%B3n-Colima-110434097483970/,,,,
org77,Colectivo Todos Somos Erick Carrillo,colectivo,México,Baja California,,,526641182521,karlapdbenson@gmail.com,,https://www.facebook.com/TodosSomosErickCarrillo/,,,,
org78,Colectivos Unidos por los Desaparecidos de Baja California,colectivo,México,Baja California,,,526641182521,karlapdbenson@gmail.com,,https://www.facebook.com/Colectivos-Unidos-por-los-Desaparecidos-de-Baja-California-105784151315594/,,,,
org79,Colibrí Center ,NGO,US,Arizona,Tuscon,"738 North 5th Avenue, Suite 235 Tucson, AZ 85705",5207248644,info@colibricenter.org,https://colibricenter.org,https://www.facebook.com/colibricenterforhumanrights,,,,
org80,Comisión de Búsqueda de Personas de la Ciudad de México,LocalGovernment,México,Ciudad de México,,"República de Cuba 43, Colonia Centro, Alcaldía Cuauhtémoc, C.P. 06010, Ciudad de México",5591314605,comisionbusquedadepersonas@cd mx.gob.mx,https://comisiondebusqueda.cdmx.gob.mx/,https://www.facebook.com/cbusquedacdmx,https://twitter.com/busqueda_cdmx,,,
org81,Comisión de Búsqueda de Personas de Michoacán,LocalGovernment,México,Michoacán,,"C. P.º del Cedro 156, Prados Verdes, 58110 Morelia, Mich., México",4436889974,cobusquedamich@gmail.com,,https://www.facebook.com/BusquedaMich/,,,,
org82,Comisión de Búsqueda de Personas de Yucatán,LocalGovernment,México,Yucatán ,,"Palacio de Gobierno, Calle 61 * 60 y 62, Centro, CP 97000, Mérida, Yucatán",999 930 31 00 Ext. 10080,karla.quintal@yucatan.gob.mx,,,,,,
org83,Comisión de Búsqueda de Personas del Estado de Colima,LocalGovernment,México,Colima,,"León Felipe 126, Lomas Verdes, 28017 Colima, Col., México",3123235165,comision.busqueda.col@gmail.com,https://www.col.gob.mx/Busquedapersonas?fbclid=IwAR2mGqaTU8BlODeXGwATTg2AMKfbBMitDKe9_dSRI7cf3S38q2uJGG_Auw8,https://www.facebook.com/profile.php?id=100069024285988,,,,
org84,Comisión de Búsqueda de Personas del Estado de Hidalgo,LocalGovernment,México,Hidalgo,,"Blvd. Felipe Ángeles #102, 2 piso, Col. Santa Julia. Pachuca de Soto, Hidalgo c.p. 42080",7717176000 Ext. 8015,comisiondebusqueda@hidalgo.gob .mx,,https://www.facebook.com/ComisiondeBusquedaChihuahua,https://twitter.com/cbpehidalgo,,,
org85,Comisión de Búsqueda de Personas del Estado de México,LocalGovernment,México,Estado de México ,,"Matlazincas 660, La Teresona, 50040 Toluca de Lerdo, Méx., México",8002160361; 8005090927,cobupem@edomex.gob.mx ,https://cobupem.edomex.gob.mx/quienes-somos,https://twitter.com/COBUPEM,,,,
org86,Comisión de Búsqueda de Personas del Estado de Morelos,LocalGovernment,México,Morelos,,"Av Atlacomulco 142, Cantarranas, 62440 Cuernavaca, Mor., México",527773101890,comisiondebusqueda@morelos.gob.mx,,https://www.facebook.com/búsquedamorelos/,,,,
org87,Comisión de Búsqueda de Personas del Estado de Puebla,LocalGovernment,México,Puebla,,"Atlixcáyotl 1101, 4 piso, Reserva Territorial Atlixcáyotl, Geovillas Atlixcayotl, Puebla, Pue., México",2222463830,comision.d.b.pue@gmail.com,http://cbpep.puebla.gob.mx/,https://www.facebook.com/busquedagobpue/,https://twitter.com/busquedagobpue,,,
org88,Comisión de Búsqueda de Personas del Estado de Quintanta Roo,LocalGovernment,México,Quintana Roo ,,"Av. Tulum número 22 y 23 Supermanzana 2, Manzana 13, segundo piso, cp. 77500 Cancún, Quintana Roo",9838679349,"luz.gonzalez@qroo.gob.mx 
comisiondebusqueda@qroo.gob.mx
cbp.qroo@gmail.com",https://qroo.gob.mx/index2.php/segob/cbpeqroo,https://www.facebook.com/groups/CBPEQROO/,https://twitter.com/busqueda_qroo,,,
org89,Comisión de Búsqueda del Estado de Coahuila de Zaragoza,LocalGovernment,México,Coahuila,,"C. Hidalgo 412, Zona Centro, 25000 Saltillo, Coah., México",8441140397,cdebusquedacoahuila@gmail.com,,https://www.facebook.com/COMISIONBECOAHUILA/,https://twitter.com/cbecoahuila?fbclid=IwAR2kukg_PoFeCxMhtj9e0uDAGtMbDuBM8kbqLEeeVu_A82Fi4qg03ytTmVs,,,
org90,Comisión de Promoción y Defensa de Derechos Humanos,NGO,México,Ciudad de México,Cuauhtémoc,"Tehuantepec 142, Roma Sur. Cuauhtémoc, 06760 Ciudad de México, CDMX",525555642582,info@cmdpdh.org,https://cmdpdh.org/,https://www.facebook.com/cmdpdh,https://twitter.com/cmdpdh,,,
org91,Comisión Estatal de Búsqueda de Personas de Aguascalientes,LocalGovernment,México,Aguascalientes,,"Palacio de Gobierno, Plaza de la Patria s/n, Zona Centro, CP 20000, Aguascalientes",4492793891,juan.hernandezo@aguascalientes.gob.mx,,https://www.facebook.com/CEPBAguascalientes/,,,,
org92,Comisión Estatal de Búsqueda de Personas de Baja California,LocalGovernment,México,Baja California,,"Calle Perimetral (Canada) #7125, 3a. Etapa, Zona Urbana Rio Tijuana, 22226 Tijuana, B.C., México",6642100365,búsquedabc@baja.gob.mx,,https://www.facebook.com/bc.cebp/,,,,
org93,Comisión Estatal de Búsqueda de Personas de BCS,LocalGovernment,México,Baja California Sur,,"Calle Ignacio Altamirano, Local número 163, entre 5 de Febrero y Cuauhtémoc, C.P. 23060, Col. Pueblo Nuevo, La Paz, B.C.S",526121381439,busqueda.personas@bcs.gob.mx ,sgg.bcs.gob.mx ,https://www.facebook.com/profile.php?id=100064486765448,,,,
org94,Comisión Estatal de Búsqueda de Personas de Durango,LocalGovernment,México,Durango,,"Profra. Francisca Escárzaga 208, Col del Maestro, 34240 Durango, Dgo., México",6181379689,búsquedadepersonas@durango.go b.mx,,https://m.facebook.com/BusquedaPersonasDurango,,,,
org95,Comisión Estatal de Búsqueda de Personas de Guanajuato,LocalGovernment,México,Guanajuato,,"Subterranea, Zona Centro, 36000 Guanajuato, Gto., México",4731396457,búsquedadepersonassg@guanajua to.gob.mx,https://sg.guanajuato.gob.mx/index.php/comision-estatal-de-busqueda-de-personas/,,,,,
org96,Comisión Estatal de Búsqueda de Personas de Guerrero,LocalGovernment,México,Guerrero,,"Boulevartd Rene Juárez Cisneros 62, piso 2. Edificio Norte, Colonia Ciudad de los Servicios, Chilpancingo de los Bravo, Guerrero, C.P. 39074.",7471398846,cebp.gro@gmail.com,,https://www.facebook.com/BusquedaGuerrero,,,,
org97,Comisión Estatal de Búsqueda de Personas de Jalisco,LocalGovernment,México,Jalisco,,"Calz de las Palmas 30, La Aurora, 44790 Guadalajara, Jal., México",523315145422,comisiondebusqueda@jalisco.gob.mx,https://sgg.jalisco.gob.mx/comision-estatal-de-búsqueda-personas-desaparecidas,https://www.facebook.com/búsquedaJal/ ,,,,
org98,Comisión Est​​atal de Búsqueda de Personas de San Luis Potosí,LocalGovernment,México,San Luis Potosí,Planta Alta,"Jdn. Hidalgo 11, Centro Historico, 78000 San Luis, S.L.P., México",4441442608,,https://slp.gob.mx/sgg/Paginas/búsquedadePersonas.aspx,,,,,
org99,Comisión Estatal de Búsqueda de Personas de Sinaloa,LocalGovernment,México,Sinaloa,,"Av. Pascual Orozco 1949, esq. Con Bahía de Altamira, fraccionamiento Nuevo Culiacán, Culiacán, México",526671841256,cebpd@sinaloa.gob.mx,,https://www.facebook.com/cebpdsinaloa,,,,
org100,Comisión Estatal de Búsqueda de Personas de Sonora,LocalGovernment,México,Sonora,,"C. Comonfort SN-S, El Centenario, 83260 Hermosillo, Son., México",6621404974,comisiondebusquedasonora@sonora.gob.mx,,https://www.facebook.com/ComisionSonora,,,,
org101,Comisión Estatal de Búsqueda de Personas de Tabasco,LocalGovernment,México,Tabasco,,"Av Samarkanda, Bonanza, 86030 Villahermosa, Tab., México",9933166785,"comisiondebusqueda@tabasco.gob.mx 
eduardocruz@tabasco.gob.mx",https://tabasco.gob.mx/cebp,,,,,
org102,Comisión Estatal de Búsqueda de Personas de Tamaulipas,LocalGovernment,México,Tamaulipas,,"Av. Jose Sulaimán Chagnón entronque con libramiento Naciones Unidas #641 C.P 87039 Ciudad Victoria, Tamaulipas, México",528346885075,cebtamaulipas@tam.gob.mx,,https://www.facebook.com/profile.php?id=100064843414092,,,,
org103,Comisión Estatal de Búsqueda de Personas de Veracruz,LocalGovernment,México,Veracruz,,"Calle Revolución 11, Interior 102, Zona Centro, CP. 91000, Xalapa, Veracruz",2283193187,busqueda.veracruz@gmail.com,segobver.gob.mx/cebv ,https://www.facebook.com/CEBVeracruz,,,,
org104,Comisión Estatal de Búsqueda de Personas del Estado de Tlaxcala,LocalGovernment,México,Tlaxcala,,"Calle del Árbol #4, Atempa, C.P.90000, Tlaxcala",2229207362,cedp.segob@tlaxcala.gob.mx,https://cebp.tlaxcala.gob.mx/,https://www.facebook.com/CEBPTlax/,,,,
org105,Comisión Estatal de Búsqueda de Personas Desaparecidas en el Estado de Nayarit,LocalGovernment,México,Nayarit,,"Calle prolongación Churubusco número 156 esquina con ejido, Col Santa Teresita",3112161401,cebp@nayarit.gob.mx,,https://www.facebook.com/profile.php?id=100064360975539,,,,
org106,Comisión Estatal de Búsqueda en el Estado de Chiapas,LocalGovernment,México,Chiapas,,"Palacio de Gobierno, 2do piso, Código Postal: 29000 Colonia Centro, Tuxtla Gutiérrez, Chiapas",9616888668,"comision.cebp.chiapas@gmail.com 
busqueda@cebp.chiapas.gob.mx",https://www.cebp.chiapas.gob.mx/,https://www.facebook.com/cebp.chiapas,,,,
org107,Comisión Local de Búsqueda de Personas del Estado de Campeche,LocalGovernment,México,Campeche,,"Av Miguel Alemán # 168 entre 48 b y 49 c, local 1 barrio de Guadalupe, San Francisco de Campeche C.P 24010",9818110346,combuspercam@segobcampeche.gob.mx,,https://www.facebook.com/combuspercam,,,,
org108,Comisión Local de Búsqueda de Personas del estado de Querétaro,LocalGovernment,México,Querétaro,,"Fray Sebastián Gallegos 73, El Pueblito, 76900 El Pueblito, Qro., México",4422252811 Ext: 1023; 1024,lcedillo@queretaro.gob.mx,,,,,,
org109,Comisión Local de Búsqueda de Personas del estado de Zacatecas,LocalGovernment,México,Zacatecas,,"Av García Salinas 29, El Carmen, 98608 Guadalupe, Zac., México",4921452264,clbzac@gmail.com,,https://www.facebook.com/Comisiondebúsquedazac/,https://twitter.com/ComisinDeBsque1,,,
org110,Comisión Local de Búsqueda de Personas Desaparecidas de Nuevo León,LocalGovernment,México,Nuevo León,,"C. Washington 2000, Obrera, Obrera, 64000 Monterrey, N.L., México",8120332656,comisiondebúsqueda@nuevoleon.gob.mx,,https://www.facebook.com/CLDBPNL,,,,
org111,Comisión Local de Búsqueda en el Estado de Chihuahua,LocalGovernment,México,Chihuahua,,"Calle Privada de Simon Bolivar #800, Col. Centro, C.P. 31000, Cd. Chihuahua, Chih",6144293300 Ext. 11343,fedh@chihuahua.gob.mx,http://comisiondebusqueda.chihuahua.gob.mx/,https://www.facebook.com/ComisiondeBusquedaChihuahua,https://twitter.com/combusquedacuu,,,
org112,Comisión Mexicana de Defensa y Promoción de los Derechos Humanos (CMDPDH),NGO,México,Ciudad de México,,"Tehuantepec 142, Roma Sur, Cuauhtémoc, 06760 Ciudad de México, CDMX, Mexico",525555642582,info@cmdpdh.org,https://cmdpdh.org/,https://www.facebook.com/cmdpdh,https://twitter.com/CMDPDH,,,
org113,"Comisión Mexicana de Defensa y Promoción de los Derechos Humanos, A.C. (CMDPDH) ",NGO,México,,,"Tehuantepec 142, Roma Sur, Cuauhtémoc, 06760 Ciudad de México, CDMX, Mexico",525555642582,info@cmdpdh.org,https://cmdpdh.org/,https://www.facebook.com/cmdpdh,https://twitter.com/cmdpdh,,,
org114,Comisión Nacional de Búsqueda,FederalGovernment,México,Nacional,,,5513099024,,https://comisionnacionaldebúsqueda.com/,https://twitter.com/búsqueda_MX,,,,
org115,Comisión Nacional de los Derechos Humanos (CNDH),FederalGovernment,México,Ciudad de México,,"Periférico Sur 3469, Col. San Jerónimo Lídice, Magdalena Contreras, C.P. 10200.",,,https://www.cndh.org.mx/,https://www.facebook.com/CNDHmx,https://twitter.com/CNDH,,,
org116,Comité Cerezo de México,NGO,México,Ciudad de México,,"Volcán Kiska, Mirador 3ra Secc, Tlalpan, 14449 Ciudad de México, CDMX, México",525510472031,comitecerezo@nodo50.org,https://www.comitecerezo.org/?lang=es,https://www.facebook.com/ComiteCerezoDH/,,,,
org117,"Comité de apoyo a familiares de Desaparecidos en San Miguel Cajonos, Oaxaca",colectivo,México,Oaxaca,,,,federicoyalvarodesaparecidos@gmail.com,,https://www.facebook.com/federicoyalvarodesaparecidos/,,,,
org118,Comité de Familiares de Detenidos Desaparecidos,NGO,México,Oaxaca,,,5215523385659,hastaencontrarlos@gmail.com,http://hastaencontrarlos.org/spip.php?rubrique41,https://www.facebook.com/hastaencontrarlos/,,,,
org119,Comité de Familiares de Migrantes Desaparecidos de Guatemala (AFAMIDEG),colectivo,Guatemala,Guatemala,,,,afamideg.guate@gmail.com,,https://www.facebook.com/Afamideg-2027357380856787/,,,,
org120,Comité de Familiares de Migrantes Desaparecidos del Centro de Honduras (COFAMICENH),colectivo,Honduras,Honduras,,,,,,https://www.facebook.com/Cofamicenh-1635491680066764/,,,,
org121,Comité de Familiares de Migrantes Desaparecidos del Ecuador,colectivo,Ecuador,Ecuador,,,,info@peaceinsight.org,https://www.peaceinsight.org/ar/organisations/cofamide/?location=&theme,,,,,
org122,Comité de Familiares de Migrantes Desaparecidos del Progreso (COFAMIPRO),colectivo,Honduras,Honduras,,,50497825946,,http://www.cofamiprohonduras.org/,https://www.facebook.com/Cofamipro-Comite-de-Familiares-de-Migrantes-Desaparecidos-del-Progreso-107037279389677/?ref=page_internal,,,,
org123,"Comité de Familiares de Personas Detenidas Desaparecidas en México, COFADDEM ""Alzando Voces""",colectivo,México,Michoacán,,,524433778384,contacto@cofaddem.org,https://cofaddem.org/?fbclid=IwAR1eoQc8iqejSqsO1XaUD4dmprGvnos9lZ0ZI2TrkflZzS5tH5W00_UIPf8,https://www.facebook.com/CofaddemAlzandoVoces/,,,,
org124,Comité de Familias Migrantes Desaparecidos del Salvador (COFAMIDE),colectivo,El Salvador,El Salvador,San Salvador,"Centro Histórico de SS, San Salvador, El Salvador",22228292,cofamide.elsalvador@yahoo.com,http://www.cofamide.org.sv,https://www.facebook.com/Cofamide/,,,,
org125,Comité Desaparecidos en Guerrero,colectivo,México,Guerrero,,,527475174207,tadecoac@hotmail.com,,https://www.facebook.com/comitedesaparecidos/,,,,
org126,Comité Internacional de la Cruz Roja,InternationalOrganization,México,Ciudad de México,Miguel Hidalgo,"Calzada General Mariano Escobedo 526, Anzures, Miguel Hidalgo, 11590 Ciudad de México, CDMX, México",525525812110,mex_mexico@icrc.org,https://www.icrc.org/es/where-we-work/americas/mexico,https://www.facebook.com/ICRCespanol/,https://twitter.com/cicr_es?lang=en,,,
org127,Comunidad Ciudadana en Búsqueda de Desaparecidos,colectivo,México,Tamaulipas,,,,,,https://www.youtube.com/watch?v=4sznTAZDlXc,,,,
org128,Consejo de la Judicatura Federal (CJF),FederalGovernment,México,Ciudad de México,,"Insurgentes Sur 2417, San Ángel. Álvaro Obregón, C.P. 01000, Ciudad de México",525554908000,,https://www.cjf.gob.mx/,https://twitter.com/CJF_Mx,,,,
org129,Consejo Nacional Ciudadano,NGO,México,Ciudad de México,,,,consejociudadano_snb@outlook.com,https://consejonacionalbúsqueda.org/,"https://www.facebook.com/CCiudadanoSNBmx/

",,,,
org130,Corazones Ausentes,colectivo,México,Veracruz,,,522961109998,corazonesausentes@hotmail.com,,https://www.facebook.com/Colectivo-Corazones-Ausentes-578163766196243/,,,,
org131,Data Cívica,NGO,México,Ciudad de México,,,,,https://datacivica.org/,https://www.facebook.com/datacivica,https://twitter.com/datacivica,,,
org132,De Frente Hasta Encontralos,colectivo,México,Tamaulipas,,,,,,https://www.facebook.com/Luz-De-Esperanza-414853388992861/,,,,
org133,De Pie Hasta Encontrarte Guanajuato ,colectivo,México,Guanajuato,,,4721598142,sandrasanchez28887@gmail.com,,https://www.facebook.com/Colectivo-De-Pie-Hasta-Encontrarte-Guanajuato-102622641687088/?hc_ref=ARRDrO25Y4Yd2taNy7BIgZuM7gsMpIavp6Us1W9wqM5zQS4b9pLr29YLKI1jzvUtpi4&fref=nf&__tn__=kC-RR,,,,
org134,Desaparecer en Baja California,NGO,México,Baja California,,,,,https://desaparecerenbc.elementaddhh.org/,https://www.facebook.com/sharer/sharer.php?u=https%3A%2F%2Fdesaparecerenbc.elementaddhh.org&t=Desaparecer%20en%20Baja%20California%20%E2%80%94%20Un%20espacio%20para%20la%20memoria%20colectiva.,,,,
org135,Desaparecidas en Puebla,colectivo,México,Puebla,,,,,,https://www.facebook.com/DesaparecidasPuebla/,,,,
org136,Desaparecidas en Sonora,colectivo,México,Sonora,,,,,,https://www.facebook.com/desaparecidosensonora/,,,,
org137,Desaparecidos Córdoba Veracruz,colectivo,México,Veracruz,,,,,,https://www.facebook.com/Desaparecidos-C%C3%B3rdoba-Veracruz-1608380476097242/,,,,
org138,Desaparecidos del Fuerte Sinaloa,colectivo,México,Sinaloa,Ahome,,,,,https://www.facebook.com/groups/751644074902701,,,,
org139,Desaparecidos en Honduras,NGO,Honduras,,,,,,,https://www.facebook.com/desaparecidoshonduras/,,,,
org140,Desaparecidos En La Frontera,Solidarity,US-México,,,,9123240143,,,https://www.facebook.com/Desaparecidos-En-La-Frontera-474258846064199/timeline/,,,,
org141,Desaparecidos en Sinaloa (Jesús A. Bustamante Rivera),Journalism,México,Sinaloa,,,,,https://desaparecidosensinaloa.com/contacto/,https://www.facebook.com/Desaparecidos-en-Sinaloa-102000761588297/,,,,
org142,Desaparecidos Justicia AC Querétaro,colectivo,México,Querétaro,,,,djusticiacqueretaro@gmail.com,,https://www.facebook.com/desaparecidosjusticia.ac.queretaro/,,,,
org143,Desaparecidos y no localizados en Baja California,colectivo,México,Baja California,,,6648223529,,,https://www.facebook.com/Desaparecidos-y-no-localizados-en-Baja-California-104786874754396/,,,,
org144,Deudos y Defensores por la Dignidad de Nuestros Desaparecidos,colectivo,México,Estado de México,,,,,,https://www.facebook.com/groups/FAMILIARESDESAPARECIDOS/,https://twitter.com/deudosd,,,
org145,Deutsche Menschenrechtskoordination Mexiko (Coordinación Alemana por los Derechos Humanos en México),NGO,Alemania,,,"Am Sudhaus 2, 12053 Berlin, Germany",4903047382710,"info@mexiko-koordination.de, presse@mexiko-koordination.de",https://www.mexiko-koordination.de/?l=de,,,,,
org146,"El Centro de Derechos Humanos Fray Bartolomé de Las Casas, A.C., (Frayba)",NGO,México,Chiapas,,"Brasil 14, Barrio de Mexicanos, 29240 San Cristóbal de las Casas, Chis., Mexico",01 9676787395,frayba@frayba.org.mx,https://frayba.org.mx/contacto/,https://twitter.com/CdhFrayba,,,,
org147,El Día Después,NGO,México,,,,,contacto@eldiadespues.mx,https://eldiadespues.mx/contactanos/,https://www.facebook.com/eldiadespuesmx,,,,
org148,El Movimiento por Nuestros Desaparecidos en México,NGO,México,,,,,,https://memoriamndm.org/,https://www.facebook.com/movNDmx,,,,
org149,"En busca de Nuestros Desaparecidos en Navolato, Sinaloa",colectivo,México,Sinaloa,Navolato,,526673527665,vampiiira8@gmail.com,,https://www.facebook.com/Colectivo-En-Busca-de-Nuestros-Desaparecidos-en-Navolato-Sin-AC-105438918250884/,,,,
org150,En búsqueda de verdad y justicia para los nuestros,colectivo,México,Nayarit,,,523111030068,pinzonlety@hotmail.com,,https://www.facebook.com/bvj09/,,,,
org151,En Búsqueda Los Cabos,colectivo,México,Baja California Sur,,,,,,https://www.facebook.com/En-búsqueda-Los-Cabos-165171610704965/,,,,
org152,Enlaces Familiares Xalapa,colectivo,México,Veracruz,Xalapa,,,,,https://www.facebook.com/familias.enlacesxalapa,,,,
org153,Entre El Cielo y Tierra No Hay Nada Oculto,colectivo,México,Jalisco,,,523939337561,entrecieloytierra00@gmail.com,,"https://www.facebook.com/ColectivoEntreCieloYTierra/
",https://twitter.com/CieloColectivo,,,
org154,Eslabones Nuevo León Por Los Derechos Humanos,colectivo,México,Nuevo León,,,5584900257,eslabonesregionnorte@gmail.com,,https://www.facebook.com/eslabonl/,https://twitter.com/eslabones_nl,,,
org155,Espacio OSC,NGO,México,,,,,contacto@espacio.osc.mx,https://espacio.osc.mx/sobre-espacio-osc/,https://twitter.com/EspacioOsc,,,,
org156,Familares en tu búsqueda Michoacán ,colectivo,México,Michoacán,,,524434035312,,,https://www.facebook.com/pages/category/Personal-Blog/Familiares-en-tu-b%C3%BAsqueda-Michoac%C3%A1n-118491346403800/,,,,
org157,Familiares acompañados por el Centro de Derechos Humanos de las Mujeres (CEDHEM),colectivo,México,Chihuahua,Chihuahua,,526144154152,comunicacion@cedehm.org.mx,https://cedehm.org.mx/es/donde-estan/,https://www.facebook.com/CentroCEDEHM,https://twitter.com/cedehm,,,
org158,Familiares Caminando Por Justicia,colectivo,México,Michoacán,,,524434848206,caminandoxlajusticia@hotmail.com,https://caminandoxjusticia.wixsite.com/misitio?fbclid=IwAR1nH2LCxINCHvGGhQLhJgs3E01aEhOX4rUP_2_VSV1u4SYONj8vOvO3rsM,https://www.facebook.com/CaminandoxJusticia/,https://www.instagram.com/Caminandoxjusticia/?fbclid=IwAR2otEFkQbf2wIh2fkXhoWXTG_xYBzO74v_T0SBp0NJe6PzFQrvyOENm2YE,,,
org159,Familiares en Búsqueda María Herrera,colectivo,México,Veracruz,Poza Rica,,,familiaresenbúsqueda@gmail.com,,https://www.facebook.com/búsquedadefamiliaresmx/,https://twitter.com/fam_búsqueda,,,
org160,Familiares en Búsqueda María Herrera,colectivo,México,Nacional,,,,familiaresenbúsqueda@gmail.com,,https://www.facebook.com/búsquedadefamiliaresmx/?ref=page_internal,https://twitter.com/fam_búsqueda,,,
org161,Familias de Acapulco en Busca de sus Desaparecidos A.C.,colectivo,México,Guerrero,Acapulco,,7442850141,familiasdeacapulco.enbusca@hotmail.com,https://www.desaparecidosacapulco.com/nuestra-historia/,https://www.facebook.com/Familias-de-Acapulco-en-Busca-de-sus-Desaparecidos-A-C-751258501685049,https://twitter.com/FamdeAcaenBusca,,,
org162,Familias Desaparecidos Orizaba - Córdoba,colectivo,México,Veracruz,Orizaba,,,,,https://www.facebook.com/Colectivo-Familias-Desaparecidos-Orizaba-Cordoba-218804322025217/about/?ref=page_internal,https://twitter.com/desaparecidosOC,,,
org163,Familias recuperando tesoros en Puerto Peñasco,colectivo,México,Sonora,Puerto Peñasco,"Blvd. Benito Juárez García 4073, Centro, 83550 Puerto Peñasco, Son., Mexico",526381148452,,,https://www.facebook.com/Familias-recuperando-tesoros-en-puerto-pe%C3%B1asco-119960066434143/,,,,
org164,"Familias Unidas en busca de una esperanza, Zacatecas",colectivo,México,Zacatecas,,,,lupita-vp2003@hotmail.com,,https://www.facebook.com/Familias-Unidas-en-busca-de-una-esperanza-Zacatecas-129036964495276/about/?ref=page_internal,,,,
org165,Familias Unidas en Contra de la Impunidad de Mexicali Baja California,colectivo,México,Baja California,Mexicali,,526861658988,yudithcuevas7@gmail.com,,https://www.facebook.com/Colectivo-Familias-Unidas-en-Contra-de-la-Impunidad-102959641091042/,,,,
org166,Familias Unidas por la Verdad y la Justicia,colectivo,México,Chihuahua,Ciudad Juárez,,526566744852,psicologiaporlapaz@gmail.com,,https://www.facebook.com/Familias-Unidas-por-la-Verdad-y-la-Justicia-105669884645627/,https://twitter.com/unidasverdad?lang=en,,,
org167,Familias Unidas por Nayarit,colectivo,México,Nayarit,,,523112357971,sanfat0707@hotmail.com,,https://www.facebook.com/cofaunay/,https://twitter.com/cofaunnay,,,
org168,Familias Unidos por Nuestros Desaparecidos,colectivo,México,,,,,,,https://www.facebook.com/Colectivo-Familias-Unidos-Por-Nuestros-Desaparecidos-109347694005791/,,,,
org169,Federación Latinoamericana de Asociaciones de Familiares de Detenidos-Desaparecidos (FEDEFAM),NGO,América Latina,,,,5825640503,fedefamorg@cantv.net,http://www.desaparecidos.org/fedefam/,,,,,
org170,Fiscalía Contra la Desaparición Forzada de Personas y la Cometida por Particulares - Chiapas,LocalGovernment,México,Chiapas ,,"Libramiento Norte y Rosa Oriente 2010, El Bosque, 29049 Tuxtla Gutiérrez, Chis., México",9616172300 Ext. 17541,fcdfpcp@fge.chiapas.gob.mx,https://www.fge.chiapas.gob.mx/Informacion/Directorio/Organo?id=1058,https://www.facebook.com/FGEChiapasOficial/,,,,
org171,"Fiscalía de Distrito, Zona Centro, Chihuahua",LocalGovernment,México,Chihuahua ,,"Av. Teófilo Borunda y calle 25 s/n, Colonia Santo Niño. Chihuahua, Chih.","614429-3300 Ext. 14289, 14283",,http://fiscalia.chihuahua.gob.mx/fiscalia-de-distrito-zona-centro/,https://www.facebook.com/fiscaliachihuahua,https://twitter.com/Fiscalia_Chih,,,
org172,"Fiscalía de Distrito, Zona Noroeste, Chihuahua",LocalGovernment,México,Chihuahua ,,"Avenida Naciones Unidas s/n, Colonia Centro C.P. 31700",636649 0977 Ext.: 51019 y 56859,,http://fiscalia.chihuahua.gob.mx/fiscalia-de-distrito-zona-noroeste/,https://www.facebook.com/fiscaliachihuahua,https://twitter.com/Fiscalia_Chih,,,
org173,"Fiscalía de Distrito, Zona Norte, Chihuahua",LocalGovernment,México,Chihuahua ,,"Eje Vial Juan Gabriel y Aserraderos, col. San Antonio, Ciudad Juárez, Chih.","614429-3300 Ext. 56374, 56370",,http://fiscalia.chihuahua.gob.mx/fiscalia-de-distrito-zona-norte/,https://www.facebook.com/fiscaliachihuahua,https://twitter.com/Fiscalia_Chih,,,
org174,"Fiscalía de Distrito, Zona Occidente, Chihuahua",LocalGovernment,México,Chihuahua ,,"Calle Séptima y Guatemala s/n Colonia Agrícola San Antonio C.P. 31510, Ciudad Cuauhtémoc, Chihuahua.","614429-3300 Ext. 77049, 77065, 77073",,http://fiscalia.chihuahua.gob.mx/fiscalia-de-distrito-zona-occidente/,https://www.facebook.com/fiscaliachihuahua,https://twitter.com/Fiscalia_Chih,,,
org175,"Fiscalía de Distrito, Zona Sur, Chihuahua",LocalGovernment,México,Chihuahua ,,"Hgo. del Parral Chih. Edificio de Gobierno, Av. 20 de noviembre #32, Col. Centro, CP. 338800","8627523 95 00 Ext. 77303, 77304",,http://fiscalia.chihuahua.gob.mx/fiscalia-de-distrito-zona-sur/,https://www.facebook.com/fiscaliachihuahua,https://twitter.com/Fiscalia_Chih,,,
org176,Fiscalía de Investigación y Persecución de los Delitos en Materia de Desaparición Forzada de Personas y la Desaparición Cometida por Particulares y Búsqueda de Personas Desaparecidas - Ciudad de México,LocalGovernment,México,Ciudad de México,,"Av. Jardin 356, Col del Gas, Azcapotzalco, 02950 Ciudad de México, CDMX, México",53455067,gestion_fiscal@fgjcdmx.gob.mx,https://www.fgjcdmx.gob.mx/nuestros-servicios/servicios-la-ciudadania/consulta-fipede,"https://twitter.com/FiscaliaCDMX
https://www.facebook.com/FGJCiudadDeMéxico/. ",,,,
org177,Fiscalía Especial en Personas Desaparecidas del Estado de Jaslico,LocalGovernment,México,Jalisco ,,"C. 14 2550, Colón Industrial, 44940 Guadalajara, Jal., México",3337386000 Ext:12115 y 12116,blancajacqueline.trujillo@jalisco.gob.mx,https://fiscalia.jalisco.gob.mx/,https://www.facebook.com/FiscaliaJal/,,,,
org178,Fiscalía Especializada de Desaparición Forzada de Personas del Estado de Morelos,LocalGovernment,México,Morelos ,,"Boulevard Apatlaco 165, Colonia Campo del Rayo, Temixco, Morelos, 62590",7771091248,,,,,,,
org179,Fiscalía Especializada en Investigación de los Delitos de Desaparición Forzada de Personas y Desaparición Cometida por Particulares - Puebla,LocalGovernment,México,Puebla,,"Privada de la 5 B Sur, Colonia Gabriel Pastor. C.P 72420",2222146405,fiscalia.desaparicion@fiscalia.puebla.gob.mx,https://fiscalia.puebla.gob.mx/index.php/tramites-y-servicios/servicios/recepcion-de-denuncias-desaparicion-forzada,,,,,
org180,Fiscalía Especializada en Investigaciones de Violaciones de Derechos Humanos y Desaparición Forzada - Chihuahua,LocalGovernment,México,Chihuahua ,,"Av. Paseo Bolívar 712, Bolívar, Zona Centro, 31000 Chihuahua, Chih., México",6144293300 Ext. 11308,,http://fiscalia.chihuahua.gob.mx/fiscalia-especializada-en-investigaciones-de-violaciones-de-derechos-humanos-y-desaparicion-forzada/,https://www.facebook.com/fiscaliachihuahua,,,,
org181,Fiscalía Especializada en la Investigación de Delitos de Desaparición Forzada de Personas en Tamaulipas ,LocalGovernment,México,Tamaulipas,Ciudad Victoria ,"C.P. 87039, Ciudad Victoria, Tamaulipas, México",8343185118,,https://www.fgjtam.gob.mx/facultades-de-areas/fiscalia-especializada-de-personas-no-localizadas/,https://www.facebook.com/sharer.php?u=https%3A%2F%2Fwww.fgjtam.gob.mx%2Ffacultades-de-areas%2Ffiscalia-especializada-de-personas-no-localizadas%2F,,,,
org182,Fiscalía Especializada en Materia de Desaparición Forzada y Búsqueda de Personas Desaparecidas - Guerrero,LocalGovernment,México,Guerrero ,,"René Juárez Cisneros S/N, El Potrerito, 39098 Chilpancingo de los Bravo, Gro., México",18008327692,,https://fiscaliaguerrero.gob.mx/category/alba/,https://www.facebook.com/fiscaliaguerrero?_rdr=p,,,,
org183,Fiscalía Especializada en Materia de Desaparición y Localización de Personas - Aguascalientes,LocalGovernment,México,Aguascalientes,,"Av Héroe de Nacozari S/N, San Luís, 20250 Aguascalientes, Ags., México","014494782800, Conmutador 6028, Ext: 6020 y 6040",capea@fiscalia-aguascalientes.gob.mx,https://www.fiscalia-aguascalientes.gob.mx/CAPEA.aspx,,,,,
org184,Fiscalía Especializada en Personas Desaparecidas y No Localizadas - Tlaxcala ,LocalGovernment,México,Tlaxcala,,"Liramiento Poniente Sn, Col. Unitlax, 90000 Tlaxcala de Xicohténcatl, Tlax., México",2466888048,mp_desaparecidos@pgjtlaxcala.gob.mx,https://fepdnl.pgjtlaxcala.gob.mx/,https://www.facebook.com/Fiscal%C3%ADa-de-B%C3%BAsqueda-de-Personas-Desaparecidas-del-estado-de-Tlaxcala-111354943552904/,,,,
org185,"Fiscalía Especializada para la Atención de Desaparición Forzada de Personas - Zacatecas
",FederalGovernment,México,Zacatecas ,,"Lomas del Patrocinio, 98000 Zacatecas, México",4923452996,,https://catalogoestatal.zacatecas.gob.mx/tramites/357,https://www.facebook.com/FiscaliaZac,,,,
org186,Fiscalia Especializada para la Búsqueda de Personas Desaparecidas e Investigaciòn de la Desaparicion Forzada de Personas FGE - Tabasco,LocalGovernment,México,Tabasco,Villahermosa,"Av Paseo Usumacinta 802, Gil y Saenz, 86070 Villahermosa, Tab., México",019933136550ext4074,"personasdesaparecidas16@gmail.com 
bdpersonas2@fiscaliatabasco.gob.mx
bdpersonas@fiscaliatabasco.gob.mx",https://www.fiscaliatabasco.gob.mx/AtencionVictimas/PersonasDesaparecidas,https://www.facebook.com/PersonasDesaparecidasTAB/?ref=page_internal,,,,
org187,Fiscalía Especializada para la Investigación y Persecución de los Delitos de Desaparición Forzada de Personas y Desaparición Cometida por Particulares - Michoacán,LocalGovernment,México,Michoacán ,,"Calz La Huerta 3056, 58086 Morelia, Mich., México",4433082228,fiscaliadesaparecidos@fiscaliamichoacan.gob.mx,https://directorio.fiscaliamichoacan.gob.mx/Oficina/MjA1NQ==,https://www.facebook.com/FiscaliaMich/,,,,
org188,Fiscalía Especializada para la Investigación y Persecusión de Delitos en Materia de Desaparición Forzada de Personas y Desaparición Cometida por Particulares - Estado de México,LocalGovernment,México,Estado De México ,,"Calle Paseo Matlatzincas 1100, La Teresona, 50040 Toluca de Lerdo, Méx., México",17222832012,fiscaliadesaparecidos2014@gmail.com,http://www.fiscaliadesaparecidosedomex.org.mx/,,,,,
org189,Fiscalía General de Aguascalientes,LocalGovernment,México,Aguascalientes ,Aguascalientes ,"Av. Héroe de Nacozari 201 (Edif. de Policía Ministerial) Col. San Luis, Aguascalientes, Ags., México",8008013324,"capea@fiscalia-aguascalientes.gob.mx 
buzon.fgea@fiscalia-aguascalientes.gob.mx",https://www.fiscalia-aguascalientes.gob.mx/,https://www.facebook.com/profile.php?id=100064379631884,https://twitter.com/capea_ags,,,
org190,Fiscalía General de Baja California,LocalGovernment,México,Baja California ,,"Calz. de los Presidentes 1199, Río Nuevo, 21120 Mexicali, B.C., México",526869044100,webmaster@fgebc.gob.mx,https://fgebc.gob.mx/conocenos/servicios/nolocalizados,https://www.facebook.com/fgebaja,,,,
org191,Fiscalía General de Campeche,LocalGovernment,México,Campeche,Campeche ,"Av López Portillo S/N, Sascalum, 24095 Campeche, Camp., México",9818119400,pgj@pgj.campeche.gob.mx,http://www.fgecam.campeche.gob.mx/?page_id=74,https://www.facebook.com/FiscaliaGeneralDelEstadoDeCampeche,https://twitter.com/fgecam?ref_src=twsrc%5Egoogle%7Ctwcamp%5Eserp%7Ctwgr%5Eauthor,,,
org192,"Fiscalía General de Cancún, Quintana Roo",LocalGovernment,México,Quintana Roo,Cancún,"Av. Xcaret esquina Kabah, Supermanzana 21, Manzana 3, Lote 13 C.P. 77500.",998 881 7150,,https://www.fgeqroo.gob.mx/portal/,https://www.facebook.com/FGEQuintanaRoo/,https://twitter.com/FGEQuintanaRoo,,,
org193,"Fiscalía General de Celaya, Guanajuato",LocalGovernment,México,Guanajuato ,Celaya ,"Avenida Heliotropo S/N Col. Las Flores Celaya, Gto.",4737352100,,https://portal.fgeguanajuato.gob.mx/PortalWebEstatal/Inicio/Formularios/index.aspx,https://www.facebook.com/FGEGuanajuato/,https://twitter.com/FGEGUANAJUATO,,,
org194,"Fiscalía General de Chetumal, Quintana Roo",LocalGovernment,México,Quintana Roo,Chetumal,"Av. Adolfo López Mateos No. 500 esq. Av. Nápoles. Chetumal, Quintana Roo, C.P. 77035.",9838350050,,https://www.fgeqroo.gob.mx/portal/,https://www.facebook.com/FGEQuintanaRoo/,https://twitter.com/FGEQuintanaRoo,,,
org195,Fiscalía General de Chiapas,LocalGovernment,México,Chiapas ,Tuxtla Gutiérrez,"Libramiento Norte y Rosa del Oriente Num. 2010, El Bosque, C.P. 29049, Tuxtla Gutiérrez, Chiapas",9616172300 Ext.17541,fcdfpcp@fge.chiapas.gob.mx,https://www.fge.chiapas.gob.mx/Informacion/Directorio/Organo/1058,https://www.facebook.com/FGEChiapasOficial,https://twitter.com/FGEChiapas?ref_src=twsrc%5Egoogle%7Ctwcamp%5Eserp%7Ctwgr%5Eauthor,,,
org196,Fiscalía General de Ciudad de México,LocalGovernment,México,Ciudad de México,,"Calle Gral. Gabriel Hernández 56 Colonia Doctores, Alcaldía Cuauhtémoc C.P. 06720, Ciudad de México",555200 9000,gestion_fiscal@fgjcdmx.gob.mx,https://www.fgjcdmx.gob.mx/,https://www.facebook.com/FGJCiudadDeMexico/,https://twitter.com/FiscaliaCDMX,,,
org197,Fiscalía General de Coahuila,LocalGovernment,México,Coahuila ,Saltillo,"Humberto Castilla Salas 600, Nuevo Centro Metropolitano de Saltillo, 25050 Saltillo, Coah., México",8444380700,fiscaliageneraldel estado@coahuila.gob.mx,http://www.fiscaliageneralcoahuila.gob.mx/,https://www.facebook.com/FGECOAHUILAoficial/,https://twitter.com/fgecoahuila,,,
org198,Fiscalía General de Colima,LocalGovernment,México,Colima ,,"Av. Ejercito Mexicano #200, Col. Los trabajadores, Colima, Col.",31231645 Ext. 22600,comunicacionsocialfge@fgecolima.mx,http://www.fgecolima.mx/index.php,https://www.facebook.com/FiscaliaColima/,,,,
org199,Fiscalía General de Durango,LocalGovernment,México,Durango ,,"Km 7.5, Durango - Torreon, Cd Industrial, 34208 Durango, México",6181373730,,http://fiscalia.durango.gob.mx/guia-por-delito/desaparicion-de-personas/,https://www.facebook.com/DgoFiscalia/,https://twitter.com/dgofiscalia,,,
org200,Fiscalía General de Guanajuato,LocalGovernment,México,Guanajuato ,Guanajuato,"Complejo Miguel Hidalgo y Costilla, Camino a San José de Cervera 140 Guanajuato, Gto.",4737352100,,https://portal.fgeguanajuato.gob.mx/PortalWebEstatal/Inicio/Formularios/index.aspx,https://www.facebook.com/FGEGuanajuato/,https://twitter.com/FGEGUANAJUATO,,,
org201,Fiscalía General de Guerrero,LocalGovernment,México,Guerrero,,"René Juárez Cisneros S/N, El Potrerito, 39098 Chilpancingo de los Bravo, Gro., México",7474942999,,https://fiscaliaguerrero.gob.mx/,https://www.facebook.com/fiscaliaguerrero,https://twitter.com/FGEGuerrero?ref_src=twsrcgoogletwcampserptwgrauthor,,,
org202,Fiscalía General de Hidalgo,LocalGovernment,México,Hidalgo,Pachuca ,"Carretera México – Pachuca Km 84.5, Centro  Cívico Pachuca de Soto, Hidalgo, México",7717179000 Ext. 9217,webhgo@hidalgo.gob.mx,https://procuraduria.hidalgo.gob.mx/,https://www.facebook.com/pgjeh/,https://twitter.com/PGJE_Hidalgo?lang=es,,,
org203,"Fiscalía General de Irapuato, Guanajuato",LocalGovernment,México,Guanajuato ,Irapuato,"Teresa Vara S/N Colonia Morelos Irapuato, Gto.",4737352100,,https://portal.fgeguanajuato.gob.mx/PortalWebEstatal/Inicio/Formularios/index.aspx,https://www.facebook.com/FGEGuanajuato/,https://twitter.com/FGEGUANAJUATO,,,
org204,Fiscalía General de Jalisco,LocalGovernment,México,Jalisco ,,"C. Ignacio Herrera y Cairo, 44200 Guadalajara, Jal., México",3338376000,,https://fge.jalisco.gob.mx/,https://www.facebook.com/FiscaliaJal/,https://twitter.com/fiscaliajal,,,
org205,Fiscalía General de la República,FederalGovernment,México,Ciudad de México,,"Insurgentes Glorieta No. 20, Insurgentes Avenue, 06700 Col. Roma Norte, México City",53460000,gobmx@funcionpublica.gob.mx,https://www.gob.mx/fgr,https://www.facebook.com/gobMéxico,,,,
org206,"Fiscalía General de León, Guanajuato",LocalGovernment,México,Guanajuato ,León,"Carretera León-Cuerámaro K.M 4.5 Edificio de Prevención Social y Justicia Ciudad Industrial León, Gto.",4737352100,,https://portal.fgeguanajuato.gob.mx/PortalWebEstatal/Inicio/Formularios/index.aspx,https://www.facebook.com/FGEGuanajuato/,https://twitter.com/FGEGUANAJUATO,,,
org207,Fiscalía General de Michoacán,LocalGovernment,México,Michoacán,,"Perif. Paseo de la República #5000, Sentimientos de la Nación, 58170 Morelia, Mich., México",4433223600,,https://www.fiscaliamichoacan.gob.mx/,https://www.facebook.com/FiscaliaMich/,https://twitter.com/FiscaliaMich?lang=es,,,
org208,Fiscalía General de Morelos,LocalGovernment,México,Morelos,,"Ard, Blvd. Apatlaco 165, Campo Del Rayo, 62590 Temixco, Mor., México",7773291500,,https://fiscaliamorelos.gob.mx/,https://www.facebook.com/FiscaliaGeneralMorelos/,https://twitter.com/Fiscalia_Mor,,,
org209,Fiscalía General de Nayarit,LocalGovernment,México,Nayarit ,,"Av. Tecnológico 3825, Microindustria, 63173 Tepic, Nay., México",3111296000,fiscalgeneral@nayarit.gob.mx,https://fiscaliageneral.nayarit.gob.mx/web/?fbclid=IwAR2Ki8120y0lieUFRpGG0FA0uAfi67Y_Ct4siHWTN7Ku9xcab4AKjPKD8Jo,"https://twitter.com/NayaritFiscalia
FB; https://www.facebook.com/FiscaliaNayarit/",,,,
org210,Fiscalía General de Nuevo León,LocalGovernment,México,Nuevo León,,"C. San Luis Potosí 301, Independencia, 64720 Monterrey, N.L., México",8120204000,,https://www.nl.gob.mx/pgj,https://www.facebook.com/fiscaliageneraldejusticianl,https://twitter.com/fiscalianl,,,
org211,Fiscalía General de Oaxaca,LocalGovernment,México,Oaxaca ,,"Carretera Puerto Escondido s/n, 71257 Reyes Mantecón, Oax., México",5016900 ext. 20602,fiscaliacomsoc@gmail.com,http://fge.oaxaca.gob.mx/index.php/personas-desaparecidas,https://www.facebook.com/FISCALIAGobOax//,,,,
org212,"Fiscalía General de Playa del Carmen, Quintana Roo",LocalGovernment,México,Quintana Roo,Playa del Carmen ,"Calle Zapote S/N entre Ceiba y Caoba, Misión Villamar 1 C.P. 77710.",9848730163,,https://www.fgeqroo.gob.mx/portal/,https://www.facebook.com/FGEQuintanaRoo/,https://twitter.com/FGEQuintanaRoo,,,
org213,Fiscalía General de Puebla,LocalGovernment,México,Puebla ,,"Boulevard Héroes del 5 de Mayo 31 Oriente, Ladrillera de Benítez, 72530 Puebla, Pue. MX.",2222117800,fge@fiscalia.puebla.gob.mx,http://fiscalia.puebla.gob.mx/,https://www.facebook.com/fiscaliapuebla,https://twitter.com/FiscaliaPuebla,,,
org214,Fiscalía General de Querétaro,LocalGovernment,México,Querétaro ,,"Autopista México - Querétaro 2060, Centro Sur, 76090 Santiago de Querétaro, Qro., México",524422387600,fiscaliaqro@gmail.com,https://fiscaliageneralqro.gob.mx/NoLocalizados/NoLocalizados_Mme.html,https://www.facebook.com/fiscaliaqro/?modal=admin_todo_tour,,,,
org215,Fiscalia General de Quintana Roo,LocalGovernment,México,Quintana Roo ,,"Adolfo López Mateos, 500, Colonia Italia, 77030 Chetumal, Q.R., México",9838350050 ext 1132,,https://www.fgeqroo.gob.mx/portal/fisesp,https://www.facebook.com/FGEQuintanaRoo/,,,,
org216,Fiscalía General de San Luis Potosí,LocalGovernment,México,San Luis Potosí ,,"Eje Vial Ponciano Arriaga 100, Zona Centro, 78000 San Luis, S.L.P., México",4448122624,,https://fiscaliaslp.gob.mx/vi/,https://www.facebook.com/FiscaliaSLP,https://twitter.com/fiscaliaslp?lang=en,,,
org217,"Fiscalía General de San Miguel de Allende, Guanajuato",LocalGovernment,México,Guanajuato ,San Miguel de Allende ,"Boulevard de la Conspiración #120 Fracc. Ignacio Ramírez San Miguel de Allende, Gto.",4737352100,,https://portal.fgeguanajuato.gob.mx/PortalWebEstatal/Inicio/Formularios/index.aspx,https://www.facebook.com/FGEGuanajuato/,https://twitter.com/FGEGUANAJUATO,,,
org218,Fiscalía General de Sinaloa,LocalGovernment,México,Sinaloa ,,"Enrique Sánchez Alonso 1833, Desarrollo Urbano Tres Ríos, 80100 Culiacán Rosales, Sin., México",6677162500,fiscaliageneralsinaloa@gmail.com,http://fiscaliasinaloa.mx/,https://www.facebook.com/FiscaliaGeneralSinaloa,https://twitter.com/FiscaliaSinaloa?ref_src=twsrc%5Egoogle%7Ctwcamp%5Eserp%7Ctwgr%5Eauthor,,,
org219,Fiscalía General de Sonora,LocalGovernment,México,Sonora,Hermosillo,"Blvd. Rosales y, Del Canal S/N, Centro, 83000 Hermosillo, Son., México",526622594800,portal@fiscalia.sonora.gob.mx,https://fiscalia.sonora.gob.mx/inicio,https://www.facebook.com/FiscaliaGeneralSonora/ https://twitter.com/fgjesonora,https://twitter.com/fgjesonora,,,
org220,Fiscalía General de Tabasco,LocalGovernment,México,Tabasco,,"Av. Paseo Usumacinta No. 802 Col. Gil y Sáenz. Villahermosa, Tabasco.",19933136550,,https://www.fiscaliatabasco.gob.mx/,https://www.facebook.com/FiscaliaGeneraldeTabasco,https://twitter.com/FGETabasco,,,
org221,Fiscalía General de Tamaulipas,LocalGovernment,México,Tamaulipas ,,"Av José Sulaiman Chagnon, Ejido Guadalupe Victoria, 87089 Cd Victoria, Tamps., México",8343185100,,https://www.fgjtam.gob.mx/,https://www.facebook.com/FGJTam,https://twitter.com/fgj_tam,,,
org222,Fiscalía General de Veracruz,LocalGovernment,México,Veracruz ,,"Circuito Rafael Guízar y Valencia No. 707, Colonia Reserva Territorial C.P. 91096 Xalapa, Veracruz.",2288416170,contacto@fiscaliaveracruz.gob.mx,http://fiscaliaveracruz.gob.mx/,https://www.facebook.com/fgeveracruz/,https://twitter.com/FGE_Veracruz,,,
org223,Fiscalía General de Yucatán,LocalGovernment,México,Yucatán ,,"Km. 46.5, Periférico Poniente polígono Susulá - Caucel Tablaje Catastral 20832, Mérida, Yucatán. (Entre la fábrica de postes de Yucatán y Juan Pablo II) C.P. 97217",9999303250,fge.denuncia@yucatan.gob.mx,http://www.fge.yucatan.gob.mx/,https://www.facebook.com/FiscaliaGeneral/,https://twitter.com/fgeyucatan,,,
org224,Fiscalía General de Zacatecas,LocalGovernment,México,Zacatecas ,,"Avenida Circuito Zacatecas No. 401 Col. Ciudad Gobierno, 98160 Zacatecas, Zac.",4929256050,,https://www.fiscaliazacatecas.gob.mx/,https://www.facebook.com/FiscaliaZac/,https://twitter.com/FiscaliaZac,,,
org225,Fiscalía General del Estado de México,LocalGovernment,México,Estado de México ,,José María Morelos oriente 1300. Colonia San Sebastián,7222261600,gempgj@edomex.gob.mx,https://fgjem.edomex.gob.mx/,https://www.facebook.com/FiscaliaEdomex/,https://twitter.com/FiscaliaEdomex,,,
org226,Fuerzas Unidas por Nuestros Desaparecidos en Coahuila (FUUNDEC-FUNDEM),colectivo,México,Coahuila,,,018444123784 ext.137,comunicacion@frayjuandelarios.org,https://desaparecidosencoahuila.wordpress.com/?fbclid=IwAR2Q_f3o-0MdhYq0i39WdgnVrOduKM_K9u5fjQ5XN--ytg9Iz9sIPRg6Gq0,https://www.facebook.com/FUNDEM.Mx/,https://twitter.com/fuundec,,,
org227,Fuerzas Unidas por Nuestros Desaparecidos en Coahuila (FUUNDEC),NGO,México,Coahuila,Saltillo,"C. Hidalgo 166, Zona Centro, 25000 Saltillo, Coah., Mexico",018444123784 ext. 137,dhsaltillo.desapariciones@gmail.com,https://desaparecidosencoahuila.wordpress.com/,https://www.facebook.com/FUNDEM.Mx/,,,,
org228,Fundación para la Justicia y el Estado Democrático de Derecho (FJEDD),NGO,México,Ciudad de México,,"C. Palenque 269, Narvarte Oriente, Benito Juárez, 03020 Ciudad de México, CDMX, Mexico",525563943092,justiciayestadodederecho@gmail.com,https://www.fundacionjusticia.org/,https://twitter.com/FJEDD,,,,
org229,FUNDAR,NGO,México,,,,525555543001,fundar@fundar.org.mx,https://fundar.org.mx/,https://twitter.com/FundarMexico,https://www.facebook.com/FundarMexico,,,
org230,FUNDEJ Jalisco,colectivo,México,Jalisco,,,, fundej@hotmail.com,https://fundej.wordpress.com/about/,https://www.facebook.com/fundejoficial/,https://twitter.com/fundejd,,,
org231,FUNDENL,colectivo,México,Nuevo León,Monterrey,,528117897848,desaparecidosMéxico@gmail.com,http://fundenl.org/?fbclid=IwAR2rmSuBWRTBbH4V4Xrnt5Bsgsrv0sEAVk8mG82HO0EgiUD7ntJToqBin8E,https://www.facebook.com/FUNDENL/,https://twitter.com/fundenl?lang=es,,,
org232,Grupo Colectivo de Desaparecidos en Puebla,colectivo,México,Puebla,,,,,,https://www.facebook.com/Desaparecidos-en-puebla-105655498278924,,,,
org233,Grupo de Investigaciones en Antropología Social y Forense,Research,México,Ciudad de México,,"Benito Juárez 87, Tlalpan Centro I, Tlalpan, 14000 Ciudad de México, CDMX, Mexico",,giasf1920@gmail.com,https://www.giasf.org/,https://www.facebook.com/AntropologiaSocialyForense,https://www.youtube.com/channel/UCvWnS51vSiz8navBpl9z4GA,,,
org234,Grupo V.I.D.A Laguna A.C.,colectivo,México,Coahuila,,,8712054006,papas_de_fanny@hotmail.com,,https://www.facebook.com/grupovidalaguna/,https://twitter.com/seosdesv?fbclid=IwAR3CblRFzFihAiDqtLZHHwdbmhlRC1fEGf6O-b7KtrYUt1TCWEjfLrsDWLo,,,
org235,Guerreras Buscadoras Cajeme,colectivo,México,Sonora,Cajeme,,526441277784,,,https://www.facebook.com/Guerreras-Buscadoras-Cajeme-369034767410357/,https://twitter.com/guerrerascajeme,,,
org236,Guerreras Buscadoras de Navojoa,colectivo,México,Sonora,Navojoa,,,,,https://www.facebook.com/people/Guerreras-Buscadoras-De-Navojoa/100063694865408/,,,,
org237,Guerreras Buscadoras de Sonora,colectivo,México,Sonora,Guaymas,,526221829501,,,https://www.facebook.com/Guerreras-buscadoras-de-sonora-822682018105272/?ref=page_internal,https://twitter.com/kinijaramaria,,,
org238,Guerreras Buscando Nuestros Tesoros,colectivo,México,Nayarit,,,522211269605,guerreras.nayarit@gmail.com,,https://www.facebook.com/GuerrerasBuscandoNuestrosTesoros/,https://twitter.com/Guerreras_Nay,,,
org239,HHRI: Mental Health and Human Rights Info,NGO,Oslo,,,"Mariboes gate 13, 0183 Oslo",,healthandhumanrightsinfo@gmail.com,https://www.hhri.org/,https://www.facebook.com/HealthandHumanRightsInfo/,https://twitter.com/hhri_org,,,
org240,I Have a Name/Yo Tengo Nombre,Solidarity,US-México,,,,18007633147,MissingPersons@unthsc.edu ,https://www.yotengonombre.com/about,,,,,
org241,I(dh)eas: Litigio Estratégico en Derechos Humanos,NGO,México,Ciudad de México,,,,info@idheas.org.mx,https://www.idheas.org.mx/,https://www.facebook.com/idheasdh/,,,,
org242,Identidad Migrante y Derechos Humanos,NGO,México,Monterrey,,,,,,https://www.facebook.com/IdentidadMigrante/,,,,
org243,Instituto Mexicano de Derechos Humanos y Democracia,NGO,México,Ciudad de México,,"C. del Convento 37, Sta Úrsula Xitla, Tlalpan, 14420 Ciudad de México, CDMX, Mexico",5552717226,imdhd@imdhd.org,https://imdhd.org/,https://www.facebook.com/IMDHD/?ref=br_rs,,,,
org244,International Commission on Missing Persons,InternationalOrganization,Internacional,,,"Koninginnegracht 12, 2514 AA Den Haag, Netherlands",310708506700,icmp@icmp.int,https://www.icmp.int/es/,https://www.facebook.com/TheICMP,https://twitter.com/TheICMP,,,
org245,International Committee of the Red Cross,InternationalOrganization,Internacional,,,"Av. de la Paix 19, 1202 Genève, Switzerland",41227346001,,https://www.icrc.org/en,https://www.facebook.com/ICRC/,https://twitter.com/icrc,,,
org246,International Migrant Alliance,InternationalOrganization,Internacional,,,,,ima.sect@gmail.com,https://wearemigrants.net/?fbclid=IwAR1W0DYXMKaQZxA1KHRRjTqXFFgX9_qozZky5qEDQkXmCd6ANVcFXm08ccs,https://www.facebook.com/intlmigrants/?ref=page_internal,,,,
org247,INTERSECTA,NGO,México,,,,,contacto@intersecta.org,https://www.intersecta.org/quienes-somos/,https://www.facebook.com/IntersectaOrg,https://twitter.com/IntersectaOrg,,,
org248,Jóvenes Buscadores de Jalisco,colectivo,México,Jalisco,,,523320329620,,,https://m.facebook.com/J%C3%B3venes-buscadores-de-Jalisco-100898535910420/,https://twitter.com/jovenesbuscajal?s=20&t=Wl5OQAbXt2TlVhWKPs2ZAg,,,
org249,Junax Ko'tantik,colectivo,México,Chiapas,San Cristóbal de Las Casas,,529676747811,comunicacion@vocesmesoamericanas.org,https://junax.org/,https://www.facebook.com/Junax-Kotantik-294574064314319/,https://twitter.com/vm_apm,,,
org250,Juntos por Hidalgo,colectivo,México,Hidalgo,,,,juntosporhidalgo@gmail.com,,https://www.facebook.com/Juntosporhidalgo/,,,,
org251,Juntos por la Justicia Siempre,colectivo,México,,,,,,,https://www.facebook.com/Colectivo-Juntos-Por-La-Justicia-Siempre-104605930924779/,,,,
org252,Juntos por Quintana Roo,colectivo,México,Quintana Roo,,,,,,https://www.facebook.com/JuntosporQuintanaRoo/,,,,
org253,Justicia y Dignidad Veracruz,colectivo,México,Veracruz,,,,justiciaydignidadveracruz@outlook.com,,https://www.facebook.com/justiciaydignidadveracruz/,https://mobile.twitter.com/justiciaydver,,,
org254,Las Rastreadoras por la Paz,colectivo,México,Sinaloa,,,526681443485,,,https://www.facebook.com/rastreadorasporlapaz/,,,,
org255,Licenciatura en Ciencia Forense (UNAM),Academia,México,Ciudad de México,Coyoacán,"Licenciatura en Ciencia Forense, Circuito de la, Investigación Científica S/N, C.U., Coyoacán, 04510 CDMX, Mexico","56232300 ext. 81912, 24215, 24210",contacto@cienciaforense.facmed.unam.mx,http://www.cienciaforense.facmed.unam.mx/,,,,,
org256,Los Ángeles del Desierto,Solidarity,US-México,California,San Diego,,6197733688,monicaangelesdeldesierto@yahoo.com,https://losangelesdeldesierto.org/?fbclid=IwAR220h0vEnNJFcqwioVcE1wRP-GERCbwxpC-WYoCfy1K5spipP6xwE9UrD4,,,,,
org257,Luz y Justicia,colectivo,México,Guanajuato,,,,mariaconcepcionsierra41@gmail.com,,https://www.facebook.com/conchitasierrra/,,,,
org258,Madres Buscadoras de Sonora ,colectivo,México,Sonora,,,526623415616,madresbuscadorasdesonora@gmail.com,,https://www.facebook.com/madresbuscadorasdesonora/,https://twitter.com/MadresBuscan,,,
org259,Madres de Mujeres desaparecidas acompañadas por CEDIMAC,colectivo,México,Chihuahua,Ciudad Juárez,,,,,https://www.facebook.com/profile.php?id=100014593814604&fref=search&eid=ARB5gwBGMaOIbBK50vklQzdxA6jir_oRHS5P5oEPi3IL6ZVMF0T982Sf9mn6sXgl1-2ET5cBHtMJ7hHw,https://twitter.com/CEDIMAC1,,,
org260,Madres en Búsqueda Belén González,colectivo,México,Veracruz,,,,madresenbúsquedabelenglez@gmail.com,,https://www.facebook.com/Madres-en-b%C3%BAsqueda-Bel%C3%A9n-Gonz%C3%A1lez-1120648291356941/,,,,
org261,Madres en Búsqueda Coatzacoalcos,colectivo,México,Tabasco,,,,bdpersonas_desaperciadas@fiscaliatabasco.gob.mx,,https://www.facebook.com/Madres-en-búsqueda-coatzacoalcos-328880340906485/?ref=page_internal,https://twitter.com/madresen,,,
org262,Madres Hasta Encontrarte Tecate,colectivo,México,Baja California,Tecate,,,,,https://m.facebook.com/Colectivo-Madres-hasta-encontrarteTecate-100223448559712/,,,,
org263,Madres Igualtecas ,colectivo,México,Guerrero,Iguala,,,,,https://www.facebook.com/Colectivo-Madres-Igualtecas-2319852208281765/,,,,
org264,Madres Unidas por Nuestros Hijos San Fernando Tamaulipas,colectivo,México,Tamaulipas,San Fernando,,,,,https://www.facebook.com/Madres-Unidas-por-Nuestros-Hijos-San-Fernando-Tamaulipas-330186337680484/,,,,
org265,Madres Unidas y Fuertes,colectivo,México,Baja California,,,,,,https://www.facebook.com/MadresUnidasyFuertesBC//,,,,
org266,Mariposas Destellando Buscando Corazones y Justicia,colectivo,México,Regional,,,525517468004,colectivomariposasdestellando@gmail.com,,https://www.facebook.com/ColectivoMariposasDestellando/,https://twitter.com/CMariposasD,,,
org267,"Milynali Red Ciencia Forense Ciudadana, A.C",colectivo,México,Tamaulipas,,,,milynalired@protonmail.com,https://www.milynaliredcfc.org/proyectos,https://www.facebook.com/milynaliredcfc2017/,,,,
org268,Movimento Migrante Mesoamericano,NGO,México,Internacional,,,,caravanademadres@gmail.com,https://movimientomigrantemesoamericano.org/,https://www.facebook.com/MovimientoMigranteMesoamericano/,https://twitter.com/MMMesoamericano?ref_src=twsrc%5Etfw%7Ctwcamp%5Eembeddedtimeline%7Ctwterm%5Eprofile%3AMMMesoamericano%7Ctwgr%5EeyJ0ZndfZXhwZXJpbWVudHNfY29va2llX2V4cGlyYXRpb24iOnsiYnVja2V0IjoxMjA5NjAwLCJ2ZXJzaW9uIjpudWxsfSwidGZ3X2hvcml6b25fdHdlZXRfZW1iZWRfOTU1NSI6eyJidWNrZXQiOiJodGUiLCJ2ZXJzaW9uIjpudWxsfSwidGZ3X3NwYWNlX2NhcmQiOnsiYnVja2V0Ijoib2ZmIiwidmVyc2lvbiI6bnVsbH19&ref_url=https%3A%2F%2Fmovimientomigrantemesoamericano.org%2Fdonaciones%2F,,,
org269,Movimiento Estatal por los Desaparecidos de Baja California,Solidarity,México,Baja California,,,6643420096,movimiento.estatalbc@hotmail.com,,https://www.facebook.com/mov.estatalBC/,,,,
org270,Movimiento por nuestros desaparecidos en México,Solidarity,México,,,,,,https://memoriamndm.org/sobre-el-movndmx/,https://www.facebook.com/movNDmx,,,,
org271,Mujeres de Michoacán A.C,colectivo,México,Michoacán,,,524431304689,mujeresdemichoacan@live.com,,https://www.facebook.com/MujeresDeMichoacanAc/,,,,
org272,Mujeres en Búsqueda de sus Desaparecidos ,colectivo,México,,,,2288354984,buscandoaheron@hotmail.com ,,https://www.facebook.com/Mujeres-En-B%C3%BAsqueda-De-Sus-Desaparecidos-113127410556688/?ref=page_internal,,,,Facebook
org273,NamUS,FederalGovernment,US-México,Internacional,,,2023070627, NamUs@usdoj.gov,https://www.namus.gov/dashboard?nocache=,,,,,
org274,No More Deaths / No Más Muertes,colectivo,US-México,Arizona,,,5205855881,puentedebúsqueda@nomoredeaths.org,https://nomoredeaths.org/buscando-a-alguien-que-desaparecio-al-cruzar-la-frontera/emergencias-de-búsqueda-y-rescate-en-la-frontera-de-estados-unidos/,https://www.facebook.com/nomoredeaths/,https://mobile.twitter.com/nomoredeaths,,,
org275,Observatorio Nacional Ciudadano de Seguridad y Justicia,NGO,México,Ciudad de México,Miguel Hidalgo,"Calle Kepler 18, Anzures, Miguel Hidalgo, 11590 Ciudad de México, CDMX, Mexico",525555938628,buzon@onc.org.mx,https://onc.org.mx/,https://www.facebook.com/ObservatorioNacionalCiudadano/,https://twitter.com/obsnalciudadano?lang=es,,,
org276,Padres y Madres con Hijos Desaparecidos,colectivo,México,Sinaloa,,,526674633654,,,https://x.facebook.com/pg/Padres-y-madres-de-Hijos-desaparecidos-104498461901994/about/?ref=page_internal&mt_nav=0,,,,
org277,Padres y Madres de Ayotzinapa,colectivo,México,Guerrero,Iguala,,,,,https://www.facebook.com/Padres-Y-Madres-De-Ayotzinapa-489352334561638/,,,,
org278,Peace Brigades International (PBI) México,NGO,México,,,"Medellín 33, Roma Nte., Cuauhtémoc, 06700 Ciudad de México, CDMX, Mexico",525555142855,comunicacion@pbi-México.org,https://pbi-México.org/,,,,,
org279,Personas desaparecidas de Guatemala,NGO,Guatemala,,,,,desaparecidosdeguatemala5o2@gmail.com,,https://www.facebook.com/Personas-desaparecidas-de-Guatemala-102567734981188/,,,,
org280,Personas desaparecidas en Tijuana,Solidarity,Baja California,Tijuana,,,,,,https://www.facebook.com/groups/1941762339428524/,,,,
org281,Personas Desaparecidas Puebla,colectivo,México,Puebla,,,,,,https://www.facebook.com/Personas-Desaparecidas-puebla-254328075487029/,,,,
org282,Personas Desaparecidos Morelos,colectivo,México,Morelos,Cuernavaca,,,,,https://www.facebook.com/groups/1695515220535874/,,,,
org283,Piedepagina,Journalism,México,Ciudad de México,Cuauhtémoc,"C. Milan 20, Juárez, Cuauhtémoc, 
06600 Ciudad de México, CDMX
Mexico",525552076513,redaccionpiedepagina@gmail.com,https://piedepagina.mx/,https://www.facebook.com/Pie-de-P%C3%A1gina-495671770594686/,https://twitter.com/PdPagina,,,
org284,Por Amor a Ellxs,colectivo,México,Jalisco,,,,desdequeselosllevaron@gmail.com,,https://www.facebook.com/PorAmorAEllxs/,https://twitter.com/PorAmorAEllxs,,,
org285,Por Las Voces Sin Justicia,colectivo,México,Sinaloa,,,526691209093,porlasvocessinjusticia@gmail.com,,https://www.facebook.com/porlasvoces/,,,,
org286,Procuraduría General de Justicia de Baja California Sur,LocalGovernment,México,Baja California Sur,La Paz,"Blvd. Luis Donaldo Colosio y Alvarez Rico Col. Emiliano Zapata, C.P. 23070, La Paz",6121222230,,http://www.pgjebcs.gob.mx/exhorto.php,https://www.facebook.com/PGJBCS/,https://twitter.com/pgjebcs?lang=es,,,
org287,Procuraduría General de Justicia de Tlaxcala ,LocalGovernment,México,Tlaxcala ,,"Liramiento Poniente Sn, Col. Unitlax, 90000 Tlaxcala de Xicohténcatl, Tlax., México",2464650500,subprocuraduria.operaciones@pgjtlaxcala.gob.mx,https://pgjtlaxcala.gob.mx/,https://www.facebook.com/PGJE.TLAX,https://twitter.com/PGJE_Tlaxcala,,,
org288,Programa de Derechos Humanos (IBERO),Academia,México,,,"Prol. Paseo de la Reforma primer nivel 880-Edificio “I, Lomas de Santa Fe, Ciudad de México, Mexico",525559504000,derechos.humanos@ibero.mx,https://ibero.mx/programa-de-derechos-humanos-quienes-somos,https://twitter.com/PDHIBERO,,,,
org289,Propuesta Cívica,NGO,México,Ciudad de México,Cuauhtémoc,"Río Nazas Cuauhtémoc 06500 Cuauhtémoc, CDMX, México",44440384,nacional@propuestacivica.org.mx,https://propuestacivica.org.mx/,https://www.facebook.com/propuestacivica.mx/,,,,
org290,Proyecto sobre Desaparición Forzada en México y América Latina (UAM Cuajimalpa),Academia,México,Ciudad de México,,"Vasco de Quiroga 4871, Alcaldía, Cuajimalpa de Morelos, 05348 Ciudad de México, CDMX, Mexico",525558146500,,http://cua.uam.mx/,https://www.facebook.com/UAMUnidadCuajimalpa1,https://twitter.com/uamcuajimalpa,,,
org291,Quinto Elemento Lab,NGO,México,,,,,,https://quintoelab.org/,https://twitter.com/quintoelab,,,,
org292,Rastreador@s Nacionales de Desaparecidos (RANADES),colectivo,México,Nacional,,,,clau0613@hotmail.com,,https://www.facebook.com/Rastreadores-Nacionales-de-Desaparecidoos-Ranades-437185473493591/?ref=page_internal,,,,
org293,Rastreadoras de Caborca,colectivo,México,Sonora,Caborca,,,,,https://www.facebook.com/Rastreadoras-Caborca-103262905229020/,,,,
org294,Rastreadoras de Ciudad Obregón,colectivo,México,Sonora,Obregón,,526441543106,,,https://www.facebook.com/RastreadorasDeObSon/,https://youtube.com/channel/UCZ9wyvl4dSsAAeKd1u9pipA,,,
org295,Rastreadoras de Guasave,colectivo,México,Sinaloa,Guasave,,526871219898,rastreadorasguasave@gmail.com,,https://www.facebook.com/RastreadorasGuasave/,,,,
org296,Rastreadoras del Fuerte ,colectivo,México,Sinaloa,Los Mochis,"Almendro 2368 entre pedro anaya y leandro valle, Los Mochis, Sinaloa, México",526981127691,rigoor2015@gmail.com,,https://twitter.com/lasrastreadoras,https://www.instagram.com/LasRastreadoras/,,,
org297,RDDM Repository of Documentarion relating to Disappearances in Mexico (COLMEX),Academia,México,,,,,,,,,,,
org298,"Red de Desaparecidos en Tamaulipas, A.C.",colectivo,México,Tamaulipas,Victoria,"Calle Benito Juárez MZ19 LT2C, Cuauhtémoc, 87078 Cd Victoria, Tamps., Mexico",528342743305,desaparecidostamaulipas@protonmail.com,https://en.desaparecidostamaulipas.org/ https://memoriamndm.org/sobre-el-movndmx/red-de-desaparecidos-en-tamaulipas/,https://www.facebook.com/RedDeDesaparecidosEnTamaulipas/?ref=br_rs,,,,
org299,Red de Madres Buscando a sus Hijos,colectivo,México,Veracruz,,,,redmbuscandoh@gmail.com,,https://www.facebook.com/RedDeMadresBuscandoASusHijos/?ref=page_internal,,,,
org300,Red Eslabones por los Derechos Humanos,colectivo,México,Ciudad de México,,,,eslabonescomunica@gmail.com,http://www.redeslabones.com/,https://www.facebook.com/Red-Eslabones-Por-Los-Derechos-Humanos-Nacional-112972067199364/,,,,
org301,"Red Nacional de Defensoras de Derechos Humanos en México
 ",NGO,México,,,,9512404545,comunicacion@im-defensoras.org,https://im-defensoras.org/red-nacional-de-defensoras-de-derechos-humanos-en-México/,https://www.facebook.com/IMDefensoras/?fref=ts,https://twitter.com/IM_Defensoras,,,
org302,Red Regional de Familias Migrantes,colectivo,Internacional,,,,,,,https://www.facebook.com/RedFamiliasMigrantes/,https://mobile.twitter.com/redfamiliasmica,,,
org303,Renacer Por Amor a Ellos,colectivo,México,Nayarit,,,,,,https://www.facebook.com/Renacer-por-amor-a-ellos-1701223376673751/,,,,
org304,Retenes al rescate,colectivo,US-México,Arizona,,,5595799733,retenesalrescate@gmail.com,,https://www.facebook.com/Retenes-Al-Rescate-109248694027658,,,,
org305,Sabuesos Guerreras A.C,colectivo,México,Sinaloa,Culiacán ,"Enrique Félix Castro 2078, Infonavit Humaya, Humaya, 80020 Culiacán Rosales, Sin., Mexico",526671571930,sabuesosguerreras2018@gmail.com,http://sabuesosguerreras.wixsite.com/website,https://business.facebook.com/1234sabuesosguerreras/,,,,
org306,Sabuesos Guerreras Ext Oaxaca,colectivo,México,Oaxaca,,,9512009165,sabuesosguerreras1998@gmail.com,,https://www.facebook.com/Sabuesos-Guerreras-Ext-Oaxaca-100353215181980/,,,,
org307,Seminario Sobre Violencia y Paz (Colmex),Academia,México,Ciudad de México,,,,,https://violenciaypaz.colmex.mx,,,,,
org308,Servicios y Asesoría para la Paz (Serapaz),NGO,México,,,,,,https://serapaz.org.mx/,,,,,
org309,Siguiendo Tus Pasos,colectivo,México,Baja California,,,,colectivosiguiendotuspasos@gmail.com,,https://www.facebook.com/Siguiendo-Tus-Pasos-2266173856929335/,,,,
org310,Sin Ellos No,colectivo,México,Baja California Sur,,,,colectivoBCS@gmail.com,,https://www.facebook.com/colectivobcs.sinellosno.9,,,,
org311,Somos la Voz de los Desaparecidos,colectivo,México,Michoacán,,,,,,https://m.facebook.com/103438538549138/photos/a.103448591881466/106971168195875/?type=3&_rdr,,,,
org312,Sonrisas Perdidas,colectivo,México,Hidalgo,,,527711278592,sonrisasperdidashidalgo@hotmail.com,,https://www.facebook.com/Sonrisas-Perdidas-Hidalgo-479499778738919/,,,,
org313,South Texas Human Rights Center,NGO,US-México,Texas,Falfurrias,"117 E Miller St, Falfurrias, TX 78355",3613252555,MPSTHRC@gmail.com,https://southtexashumanrights.org/search-and-rescue/,https://www.facebook.com/STHumanRightsCenter,,,,
org314,"Tesoros Perdidos Hasta Encontrarlos, A.C",colectivo,México,Sinaloa,,,6692476738,,,https://www.facebook.com/Rastreadorasdemazatlan/,,,,
org315,Todos los Derechos para Todas y Todos,NGO,México,Nacional,,"Patricio Sanz 449, Col del Valle Nte, Benito Juárez, 03100 Ciudad de México, CDMX, Mexico",55239992,contacto@redtdt.org.mx,https://redtdt.org.mx/nosotros/,https://www.facebook.com/RedTDT/,https://twitter.com/RedTDT,,,
org316,Una Luz de Esperanza,colectivo,México,Sinaloa,,,,colectivoluzdeesperanza@gmail.com,,https://www.facebook.com/Luz-De-Esperanza-414853388992861/,https://www.youtube.com/watch?v=h0FYKe-nx-0,,,
org317,Una Luz en mi Camino ,colectivo,México,Ciudad de México,,,4621416630,unaluzenmicamino@outlook.com ,,https://www.facebook.com/Colectivo-una-luz-en-mi-camino-101898301845252/,,,,
org318,"Una nacion buscando ""T""",colectivo,México,Baja California,,,666647123862,,,https://www.facebook.com/unanacionduscandoT,,,,
org319,Unidad de Personas Desaparecidas o Extraviadas - San Luis Potosí,LocalGovernment,México,San Luis Potosí ,,"Eje Vial Ponciano Arriaga 100, Centro Historico, 78000 San Luis, S.L.P., México",444442040413,,https://fiscaliaslp.gob.mx/vi/búsqueda-de-personas-no-localizadas/,https://www.facebook.com/FiscaliaSLP/,,,,
org320,Unidad Especializada en el Combate al Secuestro - Yucatán,LocalGovernment,México,Yucatán ,,"Calle 60 s/n X calle 61 y 59, Centro, 97000 Mérida, Yuc., México",9999303250 Ext. 41243; 41244,uecs.fge@yucatan.gob.mx,https://tramites.yucatan.gob.mx/tramite/42009c9c,https://www.facebook.com/FiscaliaGeneral/,,,,
org321,Unidas por Amor a Nuestros Desaparecidos,colectivo,México,Veracruz,,,527821439912,luz200698@outlook.com,,https://m.facebook.com/people/Unidas-por-amor-a-nuestros-desaparecidos/100039257262712/,,,,
org322,Unidas por el Dolor  ,colectivo,México,Sinaloa,Culiacán,,,,,https://www.facebook.com/Unidas-por-el-dolor-1098446026843685/,,,,
org323,Unidas por la Misma Causa,colectivo,México,Tamaulipas,,,,,,https://www.facebook.com/Unidas-Por-La-Misma-Causa-138702256822367/,,,,
org324,Unidas Siempre Buscando ,colectivo,México,Querétaro,,,,,,https://www.facebook.com/Unidas-siempre-buscando-100682175509314/?ref=page_internal,,,,
org325,Unidas Siempre Buscando ,colectivo,México,Morelos,,,,,,https://www.facebook.com/Unidas-siempre-buscando-100682175509314/?ref=page_internal,,,,
org326,Unidas Siempre Buscando ,colectivo,México,Veracruz,,,,,,https://www.facebook.com/Unidas-siempre-buscando-100682175509314/?ref=page_internal,,,,
org327,Unidas Siempre Buscando ,colectivo,México,Guerrero,,,,,,https://www.facebook.com/Unidas-siempre-buscando-100682175509314/?ref=page_internal,,,,
org328,Unidas Siempre Buscando ,colectivo,México,Michoacán,,,,,,https://www.facebook.com/Unidas-siempre-buscando-100682175509314/?ref=page_internal,,,,
org329,Unidas Siempre Buscando ,colectivo,México,Sinaloa,,,,,,https://www.facebook.com/Unidas-siempre-buscando-100682175509314/?ref=page_internal,,,,
org330,Unidas Siempre Buscando ,colectivo,México,Sonora,,,,,,https://www.facebook.com/Unidas-siempre-buscando-100682175509314/?ref=page_internal,,,,
org331,Uniendo Familias Esa Es Nuestra Misión,colectivo,México,Baja California,,,526648049637; 526645994903,marygl270@gmail.com,,https://www.facebook.com/uniendofamiliastj/,,,,
org332,Unión de Familias Resilientes Buscando a sus Corazones Desaparecidos,colectivo,México,Morelos,,,,familias.resilientes20@gmail.com,,https://www.facebook.com/pages/category/Community-Organization/Familias-Resilientes-Morelos-104271494702778/,,,,
org333,Unión de Madres con Hijos de los 70´s de Sinaloa,colectivo,México,Sinaloa,,,,marxas200@yahoo.com,,https://www.facebook.com/UniondeMadresconHijosDesaparecidosSinaloa70s/,,,,
org334,"Verdad, memoria y justicia",colectivo,México,Quintana Roo ,,,,,,https://m.facebook.com/groups/867019827266933,,,,
org335,Víctimas de San Fernando,colectivo,México,Tamaulipas,,,,,,https://www.facebook.com/covisf/,,,,
org336,Voces Mesoamericanas,NGO,México,Chiapas,,,529676747811,comunicacion@vocesmesoamericanas.org,https://vocesmesoamericanas.org/,,,,,
org337,Voces Unidas por la Vida,colectivo,México,Sinaloa,,,,,,https://www.facebook.com/vocesunidasjamazseranbencidas/,,,,
org338,"Voces Unidas Por la Vida ""En Busca De Personas Desaparecidas""",colectivo,México,Sinaloa,,,,,,https://www.facebook.com/Voces-Unidas-Por-la-Vida-En-Busca-De-Personas-Desaparecidas-102497844927365/,,,,
org339,Voz de los Desaparecidos de Puebla,colectivo,México,Puebla,,,522225801683,vozdesaparecidospuebla@gmail.com,,https://www.facebook.com/DESAPARECIDOSPUEBLA/,https://twitter.com/vozdelosdesapa,,,
org340,Voz que Clama Justicia Por Personas Desaparecidas,colectivo,México,Coahuila,,,528712665813,madelaluzlopez71@gmail.com,,https://www.facebook.com/Voz-Que-Clama-Justicia-Por-Personas-Desaparecidas-105182161577995/about/?ref=page_internal,,,,
org341,Voz y Dignidad por los Nuestros SLP,colectivo,México,San Luis Potosí ,,,,,,https://www.facebook.com/VyDSLP/,,,,
org342,Xalapa por la Paz,colectivo,México,Veracruz,,,522281197077,colectivopazxalapa@hotmail.com,,https://www.facebook.com/ColectivoPazXalapa/,,,,
org343,Ymigrantes Perdidos En El Desierto,colectivo,US-México,Texas ,,,9123240143,,,https://www.facebook.com/desapareaidos,,,,